{
"type": "FeatureCollection",
"name": "study_country_boundaries",
"crs": { "type": "name", "properties": { "name": "urn:ogc:def:crs:OGC:1.3:CRS84" } },
"features": [
{ "type": "Feature", "properties": { "iso3": "EST", "name": "Estonia" }, "geometry": { "type": "MultiPolygon", "coordinates": [ [ [ [ 24.306158734238295, 57.868186255842957 ], [ 24.398285352000073, 58.023260809000078 ], [ 24.464121941000087, 58.072170315000051 ], [ 24.472911004000082, 58.154730536000045 ], [ 24.45484459700009, 58.196437893000052 ], [ 24.470957879000082, 58.250921942000048 ], [ 24.54851321700005, 58.289292710000041 ], [ 24.560394727000073, 58.312323309000078 ], [ 24.551036004000082, 58.333726304000038 ], [ 24.444183790000068, 58.386135158000059 ], [ 24.361827019000089, 58.397284247000073 ], [ 24.315928582000083, 58.379950262000079 ], [ 24.28687584700009, 58.318548895000049 ], [ 24.243337436000047, 58.280218817000048 ], [ 24.15601647200009, 58.276841539000031 ], [ 24.111664259000065, 58.241034247000073 ], [ 23.98023522200009, 58.318426825000074 ], [ 23.833506707000083, 58.353949286000045 ], [ 23.740977410000085, 58.343085028000075 ], [ 23.718923373000052, 58.399562893000052 ], [ 23.67741946700005, 58.435248114000046 ], [ 23.678965691000087, 58.524155992000033 ], [ 23.584320509000065, 58.544867255000042 ], [ 23.561208530000044, 58.583156643000052 ], [ 23.516368035000085, 58.554632880000042 ], [ 23.501475457000083, 58.562486070000034 ], [ 23.518239780000044, 58.603745835000041 ], [ 23.49773196700005, 58.696600653000075 ], [ 23.54664147200009, 58.70962148600006 ], [ 23.530039910000085, 58.722845770000049 ], [ 23.533050977000073, 58.747463283000059 ], [ 23.584483269000089, 58.737941799000055 ], [ 23.69703209700009, 58.751166083000044 ], [ 23.80250084700009, 58.730698960000041 ], [ 23.785492384000065, 58.77798086100006 ], [ 23.87435957100007, 58.771673895000049 ], [ 23.784190300000091, 58.800970770000049 ], [ 23.757660352000073, 58.785345770000049 ], [ 23.739512566000087, 58.798000393000052 ], [ 23.603363477000073, 58.794826565000051 ], [ 23.42945397200009, 58.764837958000044 ], [ 23.46656334700009, 58.800726630000042 ], [ 23.526133660000085, 58.81976959800005 ], [ 23.463633660000085, 58.864162502000056 ], [ 23.422373894000089, 58.908677476000037 ], [ 23.422048373000052, 58.928697007000039 ], [ 23.443695509000065, 58.944037177000041 ], [ 23.584483269000089, 58.953558661000045 ], [ 23.627696160000085, 58.97915273600006 ], [ 23.621592644000089, 59.015326239000046 ], [ 23.559825066000087, 59.052801825000074 ], [ 23.614431186000047, 59.011297919000071 ], [ 23.580332879000082, 59.005072333000044 ], [ 23.552989129000082, 58.970892645000049 ], [ 23.461273634000065, 58.992377020000049 ], [ 23.408376498000052, 59.025580145000049 ], [ 23.436289910000085, 59.025580145000049 ], [ 23.43490644600007, 59.05609772300005 ], [ 23.490733269000089, 59.088283596000053 ], [ 23.518239780000044, 59.073309637000079 ], [ 23.519379102000073, 59.124986070000034 ], [ 23.470876498000052, 59.212144273000035 ], [ 23.525645379000082, 59.230414130000042 ], [ 23.578461134000065, 59.226304429000038 ], [ 23.641856316000087, 59.257391669000071 ], [ 23.730479363000086, 59.230414130000042 ], [ 23.742930535000085, 59.250148830000057 ], [ 23.723643425000091, 59.26508209800005 ], [ 23.756846550000091, 59.283636786000045 ], [ 24.038584832000083, 59.29328034100007 ], [ 24.080577019000089, 59.271307684000078 ], [ 24.100108269000089, 59.294501044000071 ], [ 24.019379102000073, 59.367254950000074 ], [ 24.03484134200005, 59.388657945000034 ], [ 24.080577019000089, 59.395453192000048 ], [ 24.164886915000068, 59.354071356000077 ], [ 24.221934441000087, 59.355169989000046 ], [ 24.163096550000091, 59.402289130000042 ], [ 24.306162957000083, 59.419094143000052 ], [ 24.333832227000073, 59.470607815000051 ], [ 24.422536655000044, 59.477443752000056 ], [ 24.498301629000082, 59.443833726000037 ], [ 24.54818769600007, 59.462958075000074 ], [ 24.642588738000086, 59.436428127000056 ], [ 24.656586134000065, 59.449896552000041 ], [ 24.621836785000085, 59.470607815000051 ], [ 24.658539259000065, 59.472072658000059 ], [ 24.674978061000047, 59.496039130000042 ], [ 24.744395379000082, 59.447211005000042 ], [ 24.772634311000047, 59.450100002000056 ], [ 24.81576582100007, 59.489325262000079 ], [ 24.783539259000065, 59.51984284100007 ], [ 24.772634311000047, 59.559963283000059 ], [ 24.803477410000085, 59.570502020000049 ], [ 24.934418165000068, 59.508042710000041 ], [ 25.012217644000089, 59.518377997000073 ], [ 25.097829623000052, 59.497870184000078 ], [ 25.116465691000087, 59.503119208000044 ], [ 25.107920769000089, 59.528998114000046 ], [ 25.145518425000091, 59.539129950000074 ], [ 25.409434441000087, 59.491034247000073 ], [ 25.402354363000086, 59.51430898600006 ], [ 25.41578209700009, 59.527085679000038 ], [ 25.543711785000085, 59.535142320000034 ], [ 25.497080925000091, 59.570868231000077 ], [ 25.481944207000083, 59.611151434000078 ], [ 25.484873894000089, 59.669826565000051 ], [ 25.622325066000087, 59.580471096000053 ], [ 25.676768425000091, 59.566066799000055 ], [ 25.705902540000068, 59.569281317000048 ], [ 25.71851647200009, 59.587591864000046 ], [ 25.684825066000087, 59.628648179000038 ], [ 25.690684441000087, 59.649359442000048 ], [ 25.670664910000085, 59.655503648000035 ], [ 25.69467207100007, 59.670884507000039 ], [ 25.780528191000087, 59.635687567000048 ], [ 25.793711785000085, 59.591213283000059 ], [ 25.826182488000086, 59.575262762000079 ], [ 25.861338738000086, 59.586127020000049 ], [ 25.883067254000082, 59.631333726000037 ], [ 25.944509311000047, 59.594671942000048 ], [ 25.965017123000052, 59.597316799000055 ], [ 25.964366082000083, 59.62140534100007 ], [ 25.988536004000082, 59.634344794000071 ], [ 26.036387566000087, 59.623236395000049 ], [ 26.090993686000047, 59.585638739000046 ], [ 26.280039910000085, 59.587307033000059 ], [ 26.49781334700009, 59.539984442000048 ], [ 26.584727410000085, 59.559963283000059 ], [ 26.665049675000091, 59.551947333000044 ], [ 26.826914910000085, 59.476955471000053 ], [ 26.937673373000052, 59.450100002000056 ], [ 27.409027540000068, 59.451890367000033 ], [ 27.873301629000082, 59.407619533000059 ], [ 27.953461134000065, 59.428168036000045 ], [ 28.019053582000083, 59.481756903000075 ], [ 28.104826701000036, 59.439215394000101 ], [ 28.137796264000087, 59.400354716000052 ], [ 28.186475464000125, 59.374929911000052 ], [ 28.181824585000044, 59.35606801400003 ], [ 28.157536662000069, 59.364026185000071 ], [ 28.000647014000037, 59.333743796000064 ], [ 28.096868531000069, 59.319429423000074 ], [ 28.076611369000148, 59.305270081000018 ], [ 27.959719279000097, 59.306458639000041 ], [ 27.882307984000079, 59.275659485000077 ], [ 27.890782919000088, 59.258037822000077 ], [ 27.842413778000036, 59.161196188000062 ], [ 27.713326049000074, 58.991904196000078 ], [ 27.477784871000068, 58.875425517000039 ], [ 27.410605509000106, 58.754864400000073 ], [ 27.554886108000119, 58.395248109000065 ], [ 27.494114624000105, 58.319542135000077 ], [ 27.482849161000047, 58.26864084900005 ], [ 27.495354859000116, 58.221460266000051 ], [ 27.630437053000037, 58.088290100000066 ], [ 27.63157393400013, 58.004160868 ], [ 27.669091024000124, 57.991965230000076 ], [ 27.675188843000086, 57.967806499000019 ], [ 27.664956909000125, 57.918403829000098 ], [ 27.774407593000063, 57.890705262000083 ], [ 27.79931563300002, 57.86106882700004 ], [ 27.700717, 57.824843649000073 ], [ 27.524603719000083, 57.807299500000013 ], [ 27.553852580000125, 57.794767965000105 ], [ 27.502434530000073, 57.772547099000079 ], [ 27.507757202000107, 57.714772847000077 ], [ 27.391433553000098, 57.680201314000087 ], [ 27.377015829000072, 57.656714376000096 ], [ 27.382080119000051, 57.602686666000025 ], [ 27.328026571000066, 57.583152975000118 ], [ 27.352934611000137, 57.527600810000123 ], [ 27.319965047000068, 57.516128642000083 ], [ 27.085354045000116, 57.549434103000053 ], [ 26.981071004000086, 57.608991191000129 ], [ 26.87265384900013, 57.627181295000085 ], [ 26.795759318000137, 57.571319071000104 ], [ 26.666981649000064, 57.564859518000034 ], [ 26.590087118000071, 57.520366109000051 ], [ 26.542234741000073, 57.528169251000079 ], [ 26.499550008000057, 57.515818583000012 ], [ 26.430923706000016, 57.561707255000087 ], [ 26.297185099000075, 57.599146830000066 ], [ 26.168510783000016, 57.704049988000051 ], [ 26.024746948000143, 57.774355774000057 ], [ 26.014515015000086, 57.842827047000057 ], [ 25.792616415000083, 57.855978699000033 ], [ 25.730294637000071, 57.923132223 ], [ 25.601516968000055, 57.912202658000112 ], [ 25.55831547000011, 57.934242656000023 ], [ 25.541675659000106, 57.962819723000067 ], [ 25.457184692000055, 57.984058736000051 ], [ 25.396619914000098, 58.02317779600007 ], [ 25.324582967000111, 58.034753317000096 ], [ 25.281691528000067, 58.073407288000013 ], [ 25.250685669000035, 58.068498027 ], [ 25.249548788000141, 58.051186422000072 ], [ 25.284378703000101, 58.008139954000072 ], [ 25.232495565000107, 57.985376486000106 ], [ 25.20210982200004, 57.991965230000076 ], [ 25.166969848000093, 58.058731181000027 ], [ 25.094209432000127, 58.067309469000051 ], [ 24.949308716000047, 58.006434631000033 ], [ 24.872517537000078, 58.000440165 ], [ 24.816810344000146, 57.976669007000041 ], [ 24.733507935000119, 57.992197774000047 ], [ 24.684828735000082, 57.94757517500004 ], [ 24.533830200000068, 57.945068868000035 ], [ 24.441639445000106, 57.908094381000083 ], [ 24.378180786000087, 57.859441020000091 ], [ 24.306158734238295, 57.868186255842957 ] ] ], [ [ [ 23.943369988000086, 58.113185940000051 ], [ 23.937998894000089, 58.137274481000077 ], [ 23.955332879000082, 58.15180084800005 ], [ 24.01335696700005, 58.153509833000044 ], [ 24.022146030000044, 58.129868882000039 ], [ 24.002452019000089, 58.108547268000052 ], [ 23.970713738000086, 58.099595445000034 ], [ 23.943369988000086, 58.113185940000051 ] ] ], [ [ [ 23.230642123000052, 58.504828192000048 ], [ 23.333262566000087, 58.456366278000075 ], [ 23.324961785000085, 58.442287502000056 ], [ 23.26140384200005, 58.465887762000079 ], [ 23.23764082100007, 58.456366278000075 ], [ 23.278005405000044, 58.436509507000039 ], [ 23.234873894000089, 58.439886786000045 ], [ 23.156504754000082, 58.477525132000039 ], [ 23.130381707000083, 58.439520575000074 ], [ 23.084239129000082, 58.429632880000042 ], [ 23.086761915000068, 58.394964911000045 ], [ 23.042491082000083, 58.371486721000053 ], [ 23.021983269000089, 58.363226630000042 ], [ 22.95484459700009, 58.381048895000049 ], [ 22.947520379000082, 58.372626044000071 ], [ 22.969493035000085, 58.360174872000073 ], [ 22.902679884000065, 58.311835028000075 ], [ 22.811208530000044, 58.273423570000034 ], [ 22.721202019000089, 58.270331122000073 ], [ 22.710134311000047, 58.257757880000042 ], [ 22.756683790000068, 58.242254950000074 ], [ 22.723155144000089, 58.225409247000073 ], [ 22.669200066000087, 58.221502997000073 ], [ 22.654958530000044, 58.244696356000077 ], [ 22.621348504000082, 58.252752997000073 ], [ 22.564952019000089, 58.235174872000073 ], [ 22.535004102000073, 58.254055080000057 ], [ 22.504161004000082, 58.223537502000056 ], [ 22.476817254000082, 58.245103257000039 ], [ 22.295095248000052, 58.192857164000031 ], [ 22.271739129000082, 58.174261786000045 ], [ 22.256846550000091, 58.093247789000031 ], [ 22.199880405000044, 58.02602773600006 ], [ 22.202972852000073, 57.993963934000078 ], [ 22.048350457000083, 57.915106512000079 ], [ 22.016856316000087, 57.914496161000045 ], [ 21.990082227000073, 57.935614325000074 ], [ 21.990733269000089, 57.958238023000035 ], [ 21.963389519000089, 57.984035549000055 ], [ 21.997569207000083, 57.984035549000055 ], [ 22.08570397200009, 58.082586981000077 ], [ 22.147715691000087, 58.079575914000031 ], [ 22.202972852000073, 58.14789459800005 ], [ 22.072276238000086, 58.175848700000074 ], [ 22.016856316000087, 58.233872789000031 ], [ 21.896494988000086, 58.250718492000033 ], [ 21.843760613000086, 58.29360586100006 ], [ 21.855642123000052, 58.306870835000041 ], [ 21.908213738000086, 58.298732815000051 ], [ 21.873301629000082, 58.341620184000078 ], [ 21.894541863000086, 58.346502997000073 ], [ 21.944590691000087, 58.318752346000053 ], [ 21.963389519000089, 58.326605536000045 ], [ 21.954925977000073, 58.34406159100007 ], [ 21.968028191000087, 58.354559637000079 ], [ 22.011241082000083, 58.353949286000045 ], [ 21.945974155000044, 58.43227773600006 ], [ 21.832367384000065, 58.510972398000035 ], [ 21.901377800000091, 58.497992255000042 ], [ 21.928477410000085, 58.518377997000073 ], [ 21.995616082000083, 58.512518622000073 ], [ 22.089366082000083, 58.42218659100007 ], [ 22.103688998000052, 58.487209377000056 ], [ 22.187754754000082, 58.542873440000051 ], [ 22.212901238000086, 58.546372789000031 ], [ 22.228851759000065, 58.510565497000073 ], [ 22.27320397200009, 58.502020575000074 ], [ 22.288340691000087, 58.569322007000039 ], [ 22.32195071700005, 58.584784247000073 ], [ 22.463063998000052, 58.592922268000052 ], [ 22.550303582000083, 58.629584052000041 ], [ 22.583181186000047, 58.634507554000038 ], [ 22.64812259200005, 58.586737372000073 ], [ 22.682139519000089, 58.600327867000033 ], [ 22.736338738000086, 58.588080145000049 ], [ 22.811371290000068, 58.622951565000051 ], [ 22.922048373000052, 58.617417710000041 ], [ 23.091075066000087, 58.57094961100006 ], [ 23.148285352000073, 58.521551825000074 ], [ 23.230642123000052, 58.504828192000048 ] ] ], [ [ [ 23.347504102000073, 58.607163804000038 ], [ 23.400238477000073, 58.555405992000033 ], [ 23.362152540000068, 58.532456773000035 ], [ 23.278575066000087, 58.546372789000031 ], [ 23.234873894000089, 58.534654039000031 ], [ 23.059336785000085, 58.603461005000042 ], [ 23.075450066000087, 58.629828192000048 ], [ 23.120941602000073, 58.628322658000059 ], [ 23.154633009000065, 58.675930080000057 ], [ 23.197764519000089, 58.680609442000048 ], [ 23.330251498000052, 58.653062242000033 ], [ 23.349131707000083, 58.63507721600007 ], [ 23.347504102000073, 58.607163804000038 ] ] ], [ [ [ 23.364024285000085, 59.028957424000055 ], [ 23.389659050000091, 59.007513739000046 ], [ 23.384776238000086, 58.980536200000074 ], [ 23.299082879000082, 58.970892645000049 ], [ 23.223399285000085, 58.983954169000071 ], [ 23.163259311000047, 58.968939520000049 ], [ 23.114105665000068, 59.02179596600007 ], [ 23.131358269000089, 59.040716864000046 ], [ 23.170176629000082, 59.045884507000039 ], [ 23.364024285000085, 59.028957424000055 ] ] ], [ [ [ 22.354746941000087, 58.892075914000031 ], [ 22.19499759200005, 58.888006903000075 ], [ 22.04468834700009, 58.93618398600006 ], [ 22.055511915000068, 58.952704169000071 ], [ 22.094248894000089, 58.956040757000039 ], [ 22.463063998000052, 58.970892645000049 ], [ 22.442067905000044, 58.98468659100007 ], [ 22.488454623000052, 58.981146552000041 ], [ 22.487559441000087, 59.016424872000073 ], [ 22.559255405000044, 59.038397528000075 ], [ 22.587168816000087, 59.086981512000079 ], [ 22.666677280000044, 59.084906317000048 ], [ 22.714121941000087, 59.069566148000035 ], [ 22.691579623000052, 59.041164455000057 ], [ 22.736664259000065, 59.005072333000044 ], [ 22.837168816000087, 59.008612372000073 ], [ 22.934092644000089, 58.984035549000055 ], [ 22.949554884000065, 58.970892645000049 ], [ 22.949554884000065, 58.93618398600006 ], [ 23.015147332000083, 58.891791083000044 ], [ 23.040537957000083, 58.840765692000048 ], [ 23.019053582000083, 58.829087632000039 ], [ 22.95679772200009, 58.847398179000038 ], [ 22.942230665000068, 58.834214585000041 ], [ 22.879567905000044, 58.832709052000041 ], [ 22.867198113000086, 58.820054429000038 ], [ 22.886973504000082, 58.811835028000075 ], [ 22.886729363000086, 58.79047272300005 ], [ 22.84538821700005, 58.776516018000052 ], [ 22.778330925000091, 58.792181708000044 ], [ 22.826914910000085, 58.819159247000073 ], [ 22.819346550000091, 58.829657294000071 ], [ 22.777598504000082, 58.824367580000057 ], [ 22.736664259000065, 58.806463934000078 ], [ 22.654958530000044, 58.702785549000055 ], [ 22.555674675000091, 58.686997789000031 ], [ 22.463063998000052, 58.716457424000055 ], [ 22.497243686000047, 58.737534898000035 ], [ 22.449473504000082, 58.786810614000046 ], [ 22.429942254000082, 58.852443752000056 ], [ 22.354746941000087, 58.892075914000031 ] ] ], [ [ [ 24.515879754000082, 59.598089911000045 ], [ 24.550059441000087, 59.557766018000052 ], [ 24.542816602000073, 59.547796942000048 ], [ 24.489105665000068, 59.559637762000079 ], [ 24.487315300000091, 59.578517971000053 ], [ 24.515879754000082, 59.598089911000045 ] ] ], [ [ [ 23.260508660000085, 57.813544012000079 ], [ 23.270192905000044, 57.785630601000037 ], [ 23.217784050000091, 57.800930080000057 ], [ 23.22429446700005, 57.823716539000031 ], [ 23.260508660000085, 57.813544012000079 ] ] ] ] } },
{ "type": "Feature", "properties": { "iso3": "IRL", "name": "Ireland" }, "geometry": { "type": "MultiPolygon", "coordinates": [ [ [ [ -7.247100389999957, 55.069322007000039 ], [ -7.291152302999905, 55.046615296000098 ], [ -7.355024372999935, 55.040930888000062 ], [ -7.405253865999896, 55.003568827000024 ], [ -7.408664510999927, 54.951117248000074 ], [ -7.445251423999878, 54.932151998 ], [ -7.455069945999924, 54.863008932000028 ], [ -7.543384968999931, 54.793090719000034 ], [ -7.543074910999849, 54.741672669000067 ], [ -7.649683390999911, 54.744876608000126 ], [ -7.770502888999943, 54.706015931000067 ], [ -7.845898803999916, 54.731027323000077 ], [ -7.929666300999884, 54.696714173000046 ], [ -7.907135375999871, 54.686688945000029 ], [ -7.906618611999932, 54.661315816000027 ], [ -7.846415567999969, 54.631446838000031 ], [ -7.814996296999936, 54.639456686000088 ], [ -7.753553019999941, 54.614496969000115 ], [ -7.710558227999854, 54.624263815000049 ], [ -7.707871052999906, 54.6041616830001 ], [ -7.887136596999937, 54.532124736000029 ], [ -8.002194172999879, 54.543441875 ], [ -8.072448282999886, 54.487062887 ], [ -8.173837442999911, 54.461741435000093 ], [ -8.056480265999937, 54.365881654000063 ], [ -8.002194172999879, 54.357923483 ], [ -7.950801961999929, 54.300872702000092 ], [ -7.880263631999867, 54.287023417000043 ], [ -7.856440796999891, 54.211420797000088 ], [ -7.704770466999889, 54.200362041000076 ], [ -7.632681843999904, 54.168529358000043 ], [ -7.609014037999941, 54.139900615000059 ], [ -7.502302204999864, 54.125121155000031 ], [ -7.414658976999959, 54.145688376000024 ], [ -7.425769408999884, 54.136955058000055 ], [ -7.394660197999912, 54.121917217000075 ], [ -7.326964069999917, 54.11359731 ], [ -7.310324259999902, 54.114682516000087 ], [ -7.333165242999911, 54.14274281900002 ], [ -7.325982218999854, 54.154576722000044 ], [ -7.295544799999988, 54.165118714000116 ], [ -7.297353474999881, 54.125896302000044 ], [ -7.280041870999867, 54.126154683000024 ], [ -7.265365762999892, 54.161139629000033 ], [ -7.245780395999873, 54.16697906500012 ], [ -7.261128295999924, 54.180880025000093 ], [ -7.249087686999871, 54.197416484000073 ], [ -7.153331257999952, 54.224236553000068 ], [ -7.159739135999899, 54.240669657000026 ], [ -7.145889851999925, 54.25209014900004 ], [ -7.181494913999899, 54.269763489000056 ], [ -7.175500446999877, 54.283664449000113 ], [ -7.209038452999891, 54.293431296000065 ], [ -7.184647175999942, 54.316634013000069 ], [ -7.192450316999981, 54.334720764000096 ], [ -7.127027953999914, 54.349758606000066 ], [ -7.078503783999906, 54.394717103000076 ], [ -7.01783565299985, 54.413165588000098 ], [ -6.879704548999911, 54.341593730000071 ], [ -6.856656860999948, 54.292811178000093 ], [ -6.882185017999888, 54.27725657200007 ], [ -6.837743285999892, 54.260513408000023 ], [ -6.78782385299985, 54.202997539000094 ], [ -6.74477738499985, 54.184187317000081 ], [ -6.694651244999932, 54.197984925000029 ], [ -6.640339314999949, 54.168012594000103 ], [ -6.634551554999888, 54.15013254800003 ], [ -6.666435913999862, 54.114785869000045 ], [ -6.657082478999911, 54.091944886000121 ], [ -6.672533732999909, 54.068432109000028 ], [ -6.630624144999928, 54.041818746 ], [ -6.478540405999894, 54.067708639000031 ], [ -6.433891967999955, 54.055306295000079 ], [ -6.377512980999938, 54.063264466000035 ], [ -6.354827025999896, 54.110651754000017 ], [ -6.327128458999965, 54.097887675000052 ], [ -6.284650430999932, 54.105225728000036 ], [ -6.107289191999939, 54.013617255000042 ], [ -6.160755988999938, 53.974432684000078 ], [ -6.359852667999917, 54.016017971000053 ], [ -6.347808397999927, 54.003607489000046 ], [ -6.378285285999937, 53.934881903000075 ], [ -6.372954881999931, 53.899318752000056 ], [ -6.350819464999915, 53.881415106000077 ], [ -6.243234829999949, 53.865139065000051 ], [ -6.254994269999941, 53.822211005000042 ], [ -6.222767706999946, 53.796291408000059 ], [ -6.248443162999934, 53.755764065000051 ], [ -6.229888475999928, 53.65656159100007 ], [ -6.169789191999939, 53.605658270000049 ], [ -6.092396613999938, 53.577134507000039 ], [ -6.077300584999932, 53.554632880000042 ], [ -6.081532355999911, 53.525946356000077 ], [ -6.133371548999946, 53.461086330000057 ], [ -6.158355272999927, 53.472845770000049 ], [ -6.194813605999911, 53.461086330000057 ], [ -6.130604620999918, 53.442613023000035 ], [ -6.112904425999943, 53.412665106000077 ], [ -6.126535610999952, 53.398993231000077 ], [ -6.050852016999954, 53.38540273600006 ], [ -6.062001105999911, 53.367377020000049 ], [ -6.132313605999911, 53.391587632000039 ], [ -6.218169725999928, 53.347154039000031 ], [ -6.155181443999936, 53.299383856000077 ], [ -6.096994594999956, 53.285549221000053 ], [ -6.104888475999928, 53.229437567000048 ], [ -6.071034308999913, 53.184271552000041 ], [ -6.078114386999914, 53.166205145000049 ], [ -6.030384894999941, 53.111029364000046 ], [ -6.051625128999945, 53.009263414000031 ], [ -5.993519660999937, 52.957424221000053 ], [ -6.037953253999945, 52.919663804000038 ], [ -6.064442511999914, 52.864569403000075 ], [ -6.130116339999915, 52.815985419000071 ], [ -6.153879360999952, 52.768377997000073 ], [ -6.147857225999928, 52.746161200000074 ], [ -6.215321417999917, 52.665961005000042 ], [ -6.209095831999946, 52.545843817000048 ], [ -6.356190558999913, 52.409002997000073 ], [ -6.366118943999936, 52.344427802000041 ], [ -6.390044725999928, 52.35883209800005 ], [ -6.468861456999946, 52.36001211100006 ], [ -6.462961391999954, 52.377997137000079 ], [ -6.496490037999934, 52.364325262000079 ], [ -6.456125454999949, 52.335842190000051 ], [ -6.454986131999931, 52.312241929000038 ], [ -6.423736131999931, 52.307928778000075 ], [ -6.409169074999909, 52.289252020000049 ], [ -6.372954881999931, 52.322699286000045 ], [ -6.389759894999941, 52.295599677000041 ], [ -6.318348761999914, 52.240790106000077 ], [ -6.347035285999937, 52.197251695000034 ], [ -6.377064581999946, 52.178208726000037 ], [ -6.399484829999949, 52.185492255000042 ], [ -6.382313605999911, 52.211981512000079 ], [ -6.425607876999948, 52.193793036000045 ], [ -6.469105597999942, 52.193589585000041 ], [ -6.448638475999928, 52.199774481000077 ], [ -6.472564256999931, 52.206976630000042 ], [ -6.579741990999935, 52.178208726000037 ], [ -6.715565558999913, 52.216620184000078 ], [ -6.805572068999936, 52.212836005000042 ], [ -6.764027472999942, 52.261297919000071 ], [ -6.792958136999914, 52.240423895000049 ], [ -6.83226477799991, 52.240790106000077 ], [ -6.839100714999915, 52.212836005000042 ], [ -6.81859290299991, 52.220363674000055 ], [ -6.83226477799991, 52.193589585000041 ], [ -6.81859290299991, 52.18618398600006 ], [ -6.932118292999917, 52.124660549000055 ], [ -6.948963995999918, 52.130926825000074 ], [ -6.903716600999928, 52.17218659100007 ], [ -6.921009894999941, 52.212836005000042 ], [ -6.970122850999928, 52.247381903000075 ], [ -6.997385219999956, 52.289211330000057 ], [ -6.969471808999913, 52.220363674000055 ], [ -6.979969855999911, 52.185939846000053 ], [ -6.955148891999954, 52.179348049000055 ], [ -7.017201300999943, 52.138373114000046 ], [ -7.106027798999946, 52.130926825000074 ], [ -7.071848110999952, 52.165716864000046 ], [ -7.106353318999936, 52.173000393000052 ], [ -7.120228644999941, 52.165716864000046 ], [ -7.106027798999946, 52.152044989000046 ], [ -7.149647589999915, 52.156317450000074 ], [ -7.187367316999939, 52.132757880000042 ], [ -7.435454881999931, 52.125677802000041 ], [ -7.565297003999945, 52.083726304000038 ], [ -7.582630988999938, 52.104234117000033 ], [ -7.599964972999942, 52.10101959800005 ], [ -7.63109290299991, 52.079046942000048 ], [ -7.627349412999934, 52.062689520000049 ], [ -7.602162238999938, 52.071682033000059 ], [ -7.54515540299991, 52.05499909100007 ], [ -7.582630988999938, 52.028509833000044 ], [ -7.589914516999954, 51.991156317000048 ], [ -7.70929928299995, 51.973863023000035 ], [ -7.72329667899993, 51.944566148000035 ], [ -7.829335089999915, 51.95343659100007 ], [ -7.84984290299991, 51.980129299000055 ], [ -7.869862433999913, 51.929510809000078 ], [ -7.922230597999942, 51.911810614000046 ], [ -7.880604620999918, 51.891994533000059 ], [ -7.891468878999945, 51.881903387000079 ], [ -8.008168097999942, 51.85578034100007 ], [ -8.023060675999943, 51.843573309000078 ], [ -8.00413977799991, 51.829901434000078 ], [ -8.020578579999949, 51.823919989000046 ], [ -8.246205206999946, 51.802720445000034 ], [ -8.223255988999938, 51.82367584800005 ], [ -8.230091925999943, 51.836737372000073 ], [ -8.175404425999943, 51.857163804000038 ], [ -8.202788865999935, 51.863999742000033 ], [ -8.187082485999952, 51.893133856000077 ], [ -8.210194464999915, 51.884507554000038 ], [ -8.29320227799991, 51.903306382000039 ], [ -8.40884355399993, 51.891791083000044 ], [ -8.429351365999935, 51.884507554000038 ], [ -8.329253709999932, 51.861314195000034 ], [ -8.347401495999918, 51.829901434000078 ], [ -8.298329230999911, 51.829901434000078 ], [ -8.305165167999917, 51.816229559000078 ], [ -8.292103644999941, 51.81000397300005 ], [ -8.319488084999932, 51.802557684000078 ], [ -8.284657355999911, 51.802557684000078 ], [ -8.305165167999917, 51.782131252000056 ], [ -8.297352667999917, 51.766017971000053 ], [ -8.345692511999914, 51.724676825000074 ], [ -8.435536261999914, 51.692694403000075 ], [ -8.483957485999952, 51.713812567000048 ], [ -8.464182094999956, 51.695013739000046 ], [ -8.483957485999952, 51.678412177000041 ], [ -8.491118943999936, 51.69867584800005 ], [ -8.512440558999913, 51.706040757000039 ], [ -8.558420376999948, 51.706366278000075 ], [ -8.497547980999911, 51.692694403000075 ], [ -8.539173956999946, 51.648382880000042 ], [ -8.531727667999917, 51.61078522300005 ], [ -8.572661912999934, 51.644964911000045 ], [ -8.757639126999948, 51.644964911000045 ], [ -8.690012173999946, 51.631293036000045 ], [ -8.702951626999948, 51.617010809000078 ], [ -8.682525193999936, 51.61078522300005 ], [ -8.699777798999946, 51.597235419000071 ], [ -8.696156378999945, 51.576646226000037 ], [ -8.853871222999942, 51.595933335000041 ], [ -8.888010219999956, 51.555568752000056 ], [ -8.933176235999952, 51.535345770000049 ], [ -8.991118943999936, 51.562974351000037 ], [ -9.072865363999938, 51.549383856000077 ], [ -9.120757615999935, 51.562974351000037 ], [ -9.10773678299995, 51.549383856000077 ], [ -9.115712042999917, 51.537909247000073 ], [ -9.192534959999932, 51.524603583000044 ], [ -9.189605272999927, 51.508368231000077 ], [ -9.223784959999932, 51.487290757000039 ], [ -9.264759894999941, 51.487290757000039 ], [ -9.27212480399993, 51.508368231000077 ], [ -9.335316535999937, 51.476996161000045 ], [ -9.381418423999946, 51.473618882000039 ], [ -9.346669074999909, 51.500921942000048 ], [ -9.372914191999939, 51.491278387000079 ], [ -9.367787238999938, 51.508368231000077 ], [ -9.319935675999943, 51.535060940000051 ], [ -9.401844855999911, 51.500921942000048 ], [ -9.413889126999948, 51.511135158000059 ], [ -9.401844855999911, 51.545965887000079 ], [ -9.443267381999931, 51.559515692000048 ], [ -9.456532355999911, 51.555568752000056 ], [ -9.447987433999913, 51.543646552000041 ], [ -9.547474738999938, 51.525295315000051 ], [ -9.556304490999935, 51.50812409100007 ], [ -9.611317511999914, 51.493841864000046 ], [ -9.655913865999935, 51.52016836100006 ], [ -9.717193162999934, 51.480414130000042 ], [ -9.703521287999934, 51.473618882000039 ], [ -9.820220506999931, 51.445705471000053 ], [ -9.813384568999936, 51.473618882000039 ], [ -9.833892381999931, 51.487290757000039 ], [ -9.545887824999909, 51.61078522300005 ], [ -9.59203040299991, 51.613714911000045 ], [ -9.785023566999939, 51.552476304000038 ], [ -9.847523566999939, 51.549383856000077 ], [ -9.594553188999953, 51.655503648000035 ], [ -9.458607550999943, 51.683986721000053 ], [ -9.442941860999952, 51.720038153000075 ], [ -9.525461391999954, 51.72687409100007 ], [ -9.525461391999954, 51.747300523000035 ], [ -9.560210740999935, 51.761623440000051 ], [ -9.545887824999909, 51.720038153000075 ], [ -9.626820441999939, 51.685044664000088 ], [ -9.874134894999941, 51.656195380000042 ], [ -10.028797980999911, 51.596502997000073 ], [ -10.116118943999936, 51.600287177000041 ], [ -10.156076626999948, 51.582831122000073 ], [ -10.149240688999953, 51.61078522300005 ], [ -10.059803839999915, 51.631293036000045 ], [ -10.070668097999942, 51.657049872000073 ], [ -10.100819464999915, 51.659247137000079 ], [ -10.08812415299991, 51.671616929000038 ], [ -10.003773566999939, 51.67804596600007 ], [ -9.956857876999948, 51.706366278000075 ], [ -9.997792120999918, 51.713812567000048 ], [ -9.98070227799991, 51.73187897300005 ], [ -9.888539191999939, 51.761623440000051 ], [ -9.902251756999931, 51.741156317000048 ], [ -9.867909308999913, 51.748602606000077 ], [ -9.854400193999936, 51.775295315000051 ], [ -9.785511847999942, 51.768500067000048 ], [ -9.813384568999936, 51.788275458000044 ], [ -9.737660285999937, 51.836737372000073 ], [ -9.671050584999932, 51.843003648000035 ], [ -9.58071855399993, 51.877671617000033 ], [ -9.75804602799991, 51.846991278000075 ], [ -9.863840298999946, 51.804266669000071 ], [ -9.874867316999939, 51.802557684000078 ], [ -9.868031378999945, 51.82367584800005 ], [ -9.882191535999937, 51.82367584800005 ], [ -10.135609503999945, 51.741156317000048 ], [ -10.129750128999945, 51.754339911000045 ], [ -10.224354620999918, 51.782131252000056 ], [ -10.186146613999938, 51.789618231000077 ], [ -10.177072719999956, 51.813666083000044 ], [ -10.194203253999945, 51.839097398000035 ], [ -10.23460852799991, 51.85101959800005 ], [ -10.341053839999915, 51.788275458000044 ], [ -10.341053839999915, 51.843573309000078 ], [ -10.38890540299991, 51.846177476000037 ], [ -10.381947394999941, 51.877671617000033 ], [ -10.395619269999941, 51.884507554000038 ], [ -10.25413977799991, 51.908677476000037 ], [ -10.255034959999932, 51.925482489000046 ], [ -10.30687415299991, 51.95343659100007 ], [ -10.25845292899993, 51.973863023000035 ], [ -10.266224738999938, 51.988470770000049 ], [ -10.033273891999954, 52.041083075000074 ], [ -9.992665167999917, 52.055894273000035 ], [ -9.971058722999942, 52.089911200000074 ], [ -9.954335089999915, 52.064154364000046 ], [ -9.926380988999938, 52.062689520000049 ], [ -9.90843665299991, 52.130926825000074 ], [ -9.771839972999942, 52.124701239000046 ], [ -9.792958136999914, 52.138373114000046 ], [ -9.758168097999942, 52.152044989000046 ], [ -9.956857876999948, 52.145209052000041 ], [ -9.943755662999934, 52.124701239000046 ], [ -9.954660610999952, 52.108791408000059 ], [ -9.997792120999918, 52.138373114000046 ], [ -10.186268683999913, 52.109442450000074 ], [ -10.217518683999913, 52.130926825000074 ], [ -10.242054816999939, 52.11977773600006 ], [ -10.278920050999943, 52.136379299000055 ], [ -10.30687415299991, 52.124701239000046 ], [ -10.272084113999938, 52.111721096000053 ], [ -10.368316209999932, 52.124701239000046 ], [ -10.354074673999946, 52.111721096000053 ], [ -10.436594204999949, 52.097398179000038 ], [ -10.467518683999913, 52.115139065000051 ], [ -10.478179490999935, 52.152044989000046 ], [ -10.450917120999918, 52.165716864000046 ], [ -10.461293097999942, 52.17999909100007 ], [ -10.409291144999941, 52.199774481000077 ], [ -10.41665605399993, 52.18618398600006 ], [ -10.372059699999909, 52.175604559000078 ], [ -10.366566535999937, 52.228216864000046 ], [ -10.32054602799991, 52.234564520000049 ], [ -10.275786912999934, 52.268133856000077 ], [ -10.171864386999914, 52.286810614000046 ], [ -10.156076626999948, 52.278631903000075 ], [ -10.16624915299991, 52.234564520000049 ], [ -10.100819464999915, 52.240790106000077 ], [ -10.044911261999914, 52.269273179000038 ], [ -10.036040818999936, 52.290350653000075 ], [ -10.059803839999915, 52.309637762000079 ], [ -10.013539191999939, 52.306341864000046 ], [ -10.008778449999909, 52.25336334800005 ], [ -9.94749915299991, 52.237616278000075 ], [ -9.872222459999932, 52.232652085000041 ], [ -9.825591600999928, 52.258246161000045 ], [ -9.810047980999911, 52.242132880000042 ], [ -9.737660285999937, 52.248236395000049 ], [ -9.86937415299991, 52.273138739000046 ], [ -9.88109290299991, 52.296047268000052 ], [ -9.849232550999943, 52.284735419000071 ], [ -9.833892381999931, 52.289211330000057 ], [ -9.861887173999946, 52.303452867000033 ], [ -9.82648678299995, 52.309637762000079 ], [ -9.834462042999917, 52.375230210000041 ], [ -9.949940558999913, 52.412095445000034 ], [ -9.748931443999936, 52.456732489000046 ], [ -9.703521287999934, 52.483547268000052 ], [ -9.634632941999939, 52.473578192000048 ], [ -9.650502081999946, 52.493841864000046 ], [ -9.683094855999911, 52.494614976000037 ], [ -9.675648566999939, 52.545843817000048 ], [ -9.648304816999939, 52.570379950000074 ], [ -9.470326300999943, 52.561835028000075 ], [ -9.438384568999936, 52.577134507000039 ], [ -9.27212480399993, 52.577215887000079 ], [ -9.052398240999935, 52.631822007000039 ], [ -9.005604620999918, 52.620835679000038 ], [ -8.959950324999909, 52.652289130000042 ], [ -8.751169399999924, 52.67295970300006 ], [ -8.960845506999931, 52.69367096600007 ], [ -8.952056443999936, 52.734320380000042 ], [ -8.969878709999932, 52.748480536000045 ], [ -8.942616339999915, 52.775213934000078 ], [ -9.023589647999927, 52.747137762000079 ], [ -9.058216925999943, 52.696763414000031 ], [ -9.14679928299995, 52.623765367000033 ], [ -9.254790818999936, 52.611395575000074 ], [ -9.28579667899993, 52.590806382000039 ], [ -9.333078579999949, 52.597723700000074 ], [ -9.278675910999937, 52.625718492000033 ], [ -9.278960740999935, 52.63930898600006 ], [ -9.434478318999936, 52.612005927000041 ], [ -9.524891730999911, 52.63703034100007 ], [ -9.544178839999915, 52.66665273600006 ], [ -9.58071855399993, 52.665961005000042 ], [ -9.552805141999954, 52.63930898600006 ], [ -9.694406704999949, 52.605617580000057 ], [ -9.706857876999948, 52.580226955000057 ], [ -9.936350063999953, 52.556708075000074 ], [ -9.824086066999939, 52.59516022300005 ], [ -9.621652798999946, 52.713771877000056 ], [ -9.628407355999911, 52.727443752000056 ], [ -9.498646613999938, 52.752508856000077 ], [ -9.483794725999928, 52.78266022300005 ], [ -9.491281704999949, 52.803168036000045 ], [ -9.450347459999932, 52.830471096000053 ], [ -9.427479620999918, 52.877752997000073 ], [ -9.354074673999946, 52.933498440000051 ], [ -9.477650519999941, 52.940334377000056 ], [ -9.387603318999936, 53.008612372000073 ], [ -9.395090298999946, 53.015448309000078 ], [ -9.272206183999913, 53.146673895000049 ], [ -9.251088019999941, 53.151922919000071 ], [ -9.158599412999934, 53.111029364000046 ], [ -9.096669074999909, 53.127020575000074 ], [ -9.072865363999938, 53.118475653000075 ], [ -9.070057745999918, 53.134466864000046 ], [ -9.128163214999915, 53.159409898000035 ], [ -9.069569464999915, 53.166205145000049 ], [ -9.004058397999927, 53.145738023000035 ], [ -9.045643683999913, 53.173732815000051 ], [ -8.986683722999942, 53.176988023000035 ], [ -8.936390753999945, 53.145738023000035 ], [ -8.956857876999948, 53.179877020000049 ], [ -8.89484615799995, 53.220892645000049 ], [ -9.045643683999913, 53.220892645000049 ], [ -8.96312415299991, 53.235174872000073 ], [ -8.991118943999936, 53.248195705000057 ], [ -8.942616339999915, 53.261786200000074 ], [ -9.022084113999938, 53.275458075000074 ], [ -9.511708136999914, 53.228338934000078 ], [ -9.566395636999914, 53.261786200000074 ], [ -9.547271287999934, 53.279120184000078 ], [ -9.554554816999939, 53.290716864000046 ], [ -9.571359829999949, 53.29047272300005 ], [ -9.585194464999915, 53.250433661000045 ], [ -9.612294074999909, 53.236151434000078 ], [ -9.628407355999911, 53.248195705000057 ], [ -9.609120245999918, 53.276312567000048 ], [ -9.617298956999946, 53.321478583000044 ], [ -9.576975063999953, 53.323919989000046 ], [ -9.56078040299991, 53.341213283000059 ], [ -9.601144985999952, 53.364894924000055 ], [ -9.552805141999954, 53.38540273600006 ], [ -9.621652798999946, 53.378485419000071 ], [ -9.606597459999932, 53.349351304000038 ], [ -9.634632941999939, 53.330064195000034 ], [ -9.652495897999927, 53.34125397300005 ], [ -9.637766079999949, 53.377508856000077 ], [ -9.65265865799995, 53.392808335000041 ], [ -9.743072068999936, 53.314398505000042 ], [ -9.806711391999954, 53.301581122000073 ], [ -9.842925584999932, 53.323309637000079 ], [ -9.902251756999931, 53.323919989000046 ], [ -9.887196417999917, 53.359198309000078 ], [ -9.785511847999942, 53.392767645000049 ], [ -9.820220506999931, 53.398993231000077 ], [ -9.799183722999942, 53.419501044000071 ], [ -9.860178188999953, 53.394232489000046 ], [ -9.88109290299991, 53.406439520000049 ], [ -9.847523566999939, 53.433742580000057 ], [ -9.911447719999956, 53.425970770000049 ], [ -9.922352667999917, 53.389227606000077 ], [ -9.961415167999917, 53.379584052000041 ], [ -10.014149542999917, 53.381252346000053 ], [ -10.063221808999913, 53.412665106000077 ], [ -10.176503058999913, 53.412665106000077 ], [ -10.142241990999935, 53.445705471000053 ], [ -10.05296790299991, 53.453599351000037 ], [ -10.087147589999915, 53.481512762000079 ], [ -10.020578579999949, 53.470445054000038 ], [ -10.012074347999942, 53.481512762000079 ], [ -10.107289191999939, 53.49445221600007 ], [ -10.15265865799995, 53.54360586100006 ], [ -10.203236456999946, 53.54360586100006 ], [ -10.180287238999938, 53.555487372000073 ], [ -10.10765540299991, 53.549790757000039 ], [ -10.115101691999939, 53.570298570000034 ], [ -10.070668097999942, 53.570013739000046 ], [ -10.025746222999942, 53.562892971000053 ], [ -10.005238410999937, 53.54360586100006 ], [ -9.971058722999942, 53.562892971000053 ], [ -10.046783006999931, 53.599269924000055 ], [ -9.930734829999949, 53.599798895000049 ], [ -9.867909308999913, 53.617377020000049 ], [ -9.822865363999938, 53.606431382000039 ], [ -9.696766730999911, 53.598211981000077 ], [ -9.783762173999946, 53.606268622000073 ], [ -9.90843665299991, 53.646063544000071 ], [ -9.922678188999953, 53.690741278000075 ], [ -9.899525519999941, 53.743841864000046 ], [ -9.90843665299991, 53.762111721000053 ], [ -9.789214647999927, 53.786607164000031 ], [ -9.752023891999954, 53.776353257000039 ], [ -9.566395636999914, 53.796291408000059 ], [ -9.621652798999946, 53.817328192000048 ], [ -9.560210740999935, 53.865139065000051 ], [ -9.586903449999909, 53.871975002000056 ], [ -9.566395636999914, 53.899318752000056 ], [ -9.758168097999942, 53.899318752000056 ], [ -9.910755988999938, 53.858710028000075 ], [ -9.943755662999934, 53.879380601000037 ], [ -9.90843665299991, 53.920355536000045 ], [ -9.915882941999939, 53.953843492000033 ], [ -9.868031378999945, 53.961371161000045 ], [ -9.811634894999941, 53.94171784100007 ], [ -9.807606574999909, 53.91828034100007 ], [ -9.787505662999934, 53.916083075000074 ], [ -9.785511847999942, 53.947088934000078 ], [ -9.812652147999927, 53.966294664000031 ], [ -9.831695115999935, 53.956284898000035 ], [ -9.849598761999914, 53.99750397300005 ], [ -9.898915167999917, 54.025336005000042 ], [ -9.897694464999915, 54.055121161000045 ], [ -9.861887173999946, 54.071234442000048 ], [ -9.876088019999941, 54.080633856000077 ], [ -9.833892381999931, 54.112127997000073 ], [ -9.88109290299991, 54.112127997000073 ], [ -9.917388475999928, 54.069728908000059 ], [ -9.970692511999914, 54.078558661000045 ], [ -9.990956183999913, 54.104681708000044 ], [ -9.90843665299991, 54.118353583000044 ], [ -9.951079881999931, 54.14126211100006 ], [ -9.956857876999948, 54.153143622000073 ], [ -9.930083787999934, 54.145697333000044 ], [ -9.977284308999913, 54.180487372000073 ], [ -9.936350063999953, 54.187323309000078 ], [ -10.010894334999932, 54.218329169000071 ], [ -10.025746222999942, 54.207749742000033 ], [ -10.016997850999928, 54.188666083000044 ], [ -10.05296790299991, 54.187323309000078 ], [ -10.03937740799995, 54.166815497000073 ], [ -10.087147589999915, 54.159328518000052 ], [ -10.06663977799991, 54.125189520000049 ], [ -10.094593878999945, 54.118353583000044 ], [ -10.066883917999917, 54.094916083000044 ], [ -10.11742102799991, 54.095892645000049 ], [ -10.128163214999915, 54.125189520000049 ], [ -10.091216600999928, 54.194973049000055 ], [ -10.059803839999915, 54.222072658000059 ], [ -10.115101691999939, 54.235052802000041 ], [ -9.997792120999918, 54.303941148000035 ], [ -9.971791144999941, 54.277248440000051 ], [ -9.88109290299991, 54.263006903000075 ], [ -9.927154100999928, 54.226752020000049 ], [ -9.977284308999913, 54.24249909100007 ], [ -9.983631964999915, 54.22296784100007 ], [ -9.909901495999918, 54.204413153000075 ], [ -9.868031378999945, 54.228216864000046 ], [ -9.881662563999953, 54.240383205000057 ], [ -9.875152147999927, 54.25649648600006 ], [ -9.843861456999946, 54.276597398000035 ], [ -9.765004035999937, 54.255560614000046 ], [ -9.799183722999942, 54.28351471600007 ], [ -9.758168097999942, 54.28351471600007 ], [ -9.829213019999941, 54.296861070000034 ], [ -9.84601803299995, 54.321437893000052 ], [ -9.785511847999942, 54.338080145000049 ], [ -9.706939256999931, 54.317613023000035 ], [ -9.49437415299991, 54.317613023000035 ], [ -9.384510870999918, 54.29718659100007 ], [ -9.33421790299991, 54.318304755000042 ], [ -9.268422003999945, 54.303941148000035 ], [ -9.247670050999943, 54.276597398000035 ], [ -9.211008266999954, 54.275620835000041 ], [ -9.217600063999953, 54.248724677000041 ], [ -9.195871548999946, 54.24249909100007 ], [ -9.210357225999928, 54.217840887000079 ], [ -9.149322068999936, 54.180609442000048 ], [ -9.141224738999938, 54.145697333000044 ], [ -9.13499915299991, 54.207749742000033 ], [ -9.090199347999942, 54.226629950000074 ], [ -9.051258917999917, 54.289496161000045 ], [ -8.939035610999952, 54.289984442000048 ], [ -8.856597459999932, 54.263006903000075 ], [ -8.67642167899993, 54.271307684000078 ], [ -8.572661912999934, 54.200344143000052 ], [ -8.511219855999911, 54.207749742000033 ], [ -8.572132941999939, 54.246527411000045 ], [ -8.621001756999931, 54.255560614000046 ], [ -8.593739386999914, 54.28351471600007 ], [ -8.470285610999952, 54.276597398000035 ], [ -8.572661912999934, 54.31391022300005 ], [ -8.567209438999953, 54.324164130000042 ], [ -8.531727667999917, 54.310207424000055 ], [ -8.511708136999914, 54.317368882000039 ], [ -8.519154425999943, 54.326727606000077 ], [ -8.661366339999915, 54.338039455000057 ], [ -8.663889126999948, 54.359279690000051 ], [ -8.474110480999911, 54.42999909100007 ], [ -8.466704881999931, 54.475002346000053 ], [ -8.443023240999935, 54.447333075000074 ], [ -8.210194464999915, 54.501939195000034 ], [ -8.270985480999911, 54.523667710000041 ], [ -8.216379360999952, 54.550360419000071 ], [ -8.218861456999946, 54.56976959800005 ], [ -8.17251542899993, 54.594468492000033 ], [ -8.175404425999943, 54.619289455000057 ], [ -8.137562628999945, 54.605617580000057 ], [ -8.120838995999918, 54.646551825000074 ], [ -8.292103644999941, 54.605617580000057 ], [ -8.280344204999949, 54.629624742000033 ], [ -8.301747199999909, 54.639797268000052 ], [ -8.456613735999952, 54.564642645000049 ], [ -8.384755011999914, 54.605658270000049 ], [ -8.387684699999909, 54.619859117000033 ], [ -8.421864386999914, 54.619289455000057 ], [ -8.418690558999913, 54.641302802000041 ], [ -8.431630011999914, 54.641302802000041 ], [ -8.461537238999938, 54.602850653000075 ], [ -8.494130011999914, 54.632961330000057 ], [ -8.564035610999952, 54.60883209800005 ], [ -8.672596808999913, 54.61945221600007 ], [ -8.691395636999914, 54.641302802000041 ], [ -8.791818813999953, 54.65961334800005 ], [ -8.778146938999953, 54.680080471000053 ], [ -8.797759568999936, 54.691961981000077 ], [ -8.636586066999939, 54.768459377000056 ], [ -8.456613735999952, 54.756415106000077 ], [ -8.545399542999917, 54.783758856000077 ], [ -8.529896613999938, 54.788072007000039 ], [ -8.484934048999946, 54.78937409100007 ], [ -8.444691535999937, 54.76312897300005 ], [ -8.408192511999914, 54.762640692000048 ], [ -8.461293097999942, 54.793524481000077 ], [ -8.558420376999948, 54.817857164000031 ], [ -8.490712042999917, 54.851996161000045 ], [ -8.325672980999911, 54.831529039000031 ], [ -8.381337042999917, 54.855943101000037 ], [ -8.366688605999911, 54.881089585000041 ], [ -8.312652147999927, 54.879339911000045 ], [ -8.337025519999941, 54.903631903000075 ], [ -8.374012824999909, 54.907294012000079 ], [ -8.380848761999914, 54.88617584800005 ], [ -8.409291144999941, 54.88703034100007 ], [ -8.450795050999943, 54.922064520000049 ], [ -8.463449673999946, 54.940822658000059 ], [ -8.450428839999915, 54.946275132000039 ], [ -8.418446417999917, 54.934556382000039 ], [ -8.366566535999937, 54.948187567000048 ], [ -8.41860917899993, 54.968085028000075 ], [ -8.456613735999952, 55.002875067000048 ], [ -8.415028449999909, 55.002875067000048 ], [ -8.403187628999945, 55.030666408000059 ], [ -8.374012824999909, 55.036363023000035 ], [ -8.347401495999918, 55.064276434000078 ], [ -8.335072394999941, 55.035060940000051 ], [ -8.319976365999935, 55.034328518000052 ], [ -8.305165167999917, 55.05805084800005 ], [ -8.320423956999946, 55.10492584800005 ], [ -8.278472459999932, 55.160549221000053 ], [ -8.206532355999911, 55.146877346000053 ], [ -8.14126542899993, 55.160549221000053 ], [ -8.15648352799991, 55.124497789000031 ], [ -7.97679602799991, 55.221909898000035 ], [ -7.950184699999909, 55.210272528000075 ], [ -8.00413977799991, 55.17413971600007 ], [ -7.908558722999942, 55.188421942000048 ], [ -7.898793097999942, 55.156398830000057 ], [ -7.860096808999913, 55.167914130000042 ], [ -7.894886847999942, 55.14008209800005 ], [ -7.856434699999909, 55.13898346600007 ], [ -7.834706183999913, 55.164984442000048 ], [ -7.866118943999936, 55.214911200000074 ], [ -7.798695441999939, 55.256089585000041 ], [ -7.815744594999956, 55.194647528000075 ], [ -7.717600063999953, 55.166571356000077 ], [ -7.69562740799995, 55.133205471000053 ], [ -7.702504035999937, 55.09906647300005 ], [ -7.66820227799991, 55.147202867000033 ], [ -7.695057745999918, 55.207464911000045 ], [ -7.723947719999956, 55.214585679000038 ], [ -7.70929928299995, 55.17413971600007 ], [ -7.723133917999917, 55.175726630000042 ], [ -7.791737433999913, 55.206000067000048 ], [ -7.788156704999949, 55.218573309000078 ], [ -7.760853644999941, 55.256089585000041 ], [ -7.643950975999928, 55.272772528000075 ], [ -7.611398891999954, 55.241400458000044 ], [ -7.614491339999915, 55.195990302000041 ], [ -7.572743292999917, 55.180975653000075 ], [ -7.525786912999934, 55.116156317000048 ], [ -7.541411912999934, 55.092230536000045 ], [ -7.641021287999934, 55.050685940000051 ], [ -7.561838344999956, 55.044501044000071 ], [ -7.572743292999917, 55.023382880000042 ], [ -7.681385870999918, 54.954413153000075 ], [ -7.456166144999941, 55.056138414000031 ], [ -7.454416469999956, 55.08624909100007 ], [ -7.477528449999909, 55.096380927000041 ], [ -7.462880011999914, 55.143459377000056 ], [ -7.549549933999913, 55.215399481000077 ], [ -7.516224738999938, 55.254136460000041 ], [ -7.524322068999936, 55.290269273000035 ], [ -7.478586391999954, 55.283921617000033 ], [ -7.462880011999914, 55.290269273000035 ], [ -7.469105597999942, 55.303900458000044 ], [ -7.405913865999935, 55.286932684000078 ], [ -7.347523566999939, 55.314276434000078 ], [ -7.312082485999952, 55.290269273000035 ], [ -7.339955206999946, 55.290269273000035 ], [ -7.320871548999946, 55.282171942000048 ], [ -7.256743943999936, 55.284002997000073 ], [ -7.350697394999941, 55.335191148000035 ], [ -7.353016730999911, 55.358547268000052 ], [ -7.400217251999948, 55.380275783000059 ], [ -7.384429490999935, 55.386379299000055 ], [ -7.208851691999939, 55.345119533000059 ], [ -7.129058397999927, 55.285834052000041 ], [ -6.953521287999934, 55.254339911000045 ], [ -6.939564581999946, 55.239081122000073 ], [ -6.942779100999928, 55.218573309000078 ], [ -7.172840949999909, 55.143500067000048 ], [ -7.247100389999957, 55.069322007000039 ] ] ], [ [ [ -9.662668423999946, 53.275458075000074 ], [ -9.638335740999935, 53.251044012000079 ], [ -9.658314581999946, 53.232652085000041 ], [ -9.692372199999909, 53.226385809000078 ], [ -9.710357225999928, 53.23859284100007 ], [ -9.710357225999928, 53.275458075000074 ], [ -9.662668423999946, 53.275458075000074 ] ] ], [ [ [ -9.963612433999913, 53.953843492000033 ], [ -9.922678188999953, 53.953843492000033 ], [ -9.936350063999953, 53.892482815000051 ], [ -9.957997199999909, 53.880601304000038 ], [ -10.018299933999913, 53.912909247000073 ], [ -10.055531378999945, 53.913723049000055 ], [ -10.06663977799991, 53.967596747000073 ], [ -10.162831183999913, 53.961371161000045 ], [ -10.26593990799995, 53.981838283000059 ], [ -10.218495245999918, 53.986029364000046 ], [ -10.189564581999946, 54.016017971000053 ], [ -10.134429490999935, 54.00031159100007 ], [ -10.063221808999913, 54.022772528000075 ], [ -9.975900844999956, 54.021144924000055 ], [ -9.936350063999953, 53.989243882000039 ], [ -9.956857876999948, 53.989243882000039 ], [ -9.963612433999913, 53.953843492000033 ] ] ], [ [ [ -8.552235480999911, 55.009711005000042 ], [ -8.496571417999917, 55.000677802000041 ], [ -8.483957485999952, 54.975531317000048 ], [ -8.565825975999928, 54.975531317000048 ], [ -8.552235480999911, 55.009711005000042 ] ] ], [ [ [ -9.881662563999953, 51.641058661000045 ], [ -9.799305792999917, 51.636786200000074 ], [ -9.892160610999952, 51.611273505000042 ], [ -9.917876756999931, 51.619370835000041 ], [ -9.881662563999953, 51.641058661000045 ] ] ], [ [ [ -10.351673956999946, 51.931138414000088 ], [ -10.297678188999953, 51.918402411000045 ], [ -10.322661912999934, 51.903265692000048 ], [ -10.429025844999956, 51.889837958000044 ], [ -10.351673956999946, 51.931138414000088 ] ] ], [ [ [ -9.648345506999931, 53.101711330000057 ], [ -9.660511847999942, 53.090643622000073 ], [ -9.811431443999936, 53.137600002000056 ], [ -9.696685350999928, 53.136542059000078 ], [ -9.671050584999932, 53.130519924000055 ], [ -9.671538865999935, 53.109198309000078 ], [ -9.648345506999931, 53.101711330000057 ] ] ] ] } },
{ "type": "Feature", "properties": { "iso3": "AUT", "name": "Austria" }, "geometry": { "type": "Polygon", "coordinates": [ [ [ 16.945042766000142, 48.604166158000069 ], [ 16.946903117000147, 48.539725647000054 ], [ 16.864944295000072, 48.458076885000068 ], [ 16.844480428000111, 48.365601909000034 ], [ 16.901944621000041, 48.339401958000039 ], [ 16.898430623000081, 48.316173401000114 ], [ 16.916620727000122, 48.290800273000016 ], [ 16.95434452300006, 48.273126933000114 ], [ 16.981939738000079, 48.161299134000032 ], [ 17.047465454000076, 48.130990906000093 ], [ 17.080228312000088, 48.097607931000127 ], [ 17.059144327000041, 48.060426737000014 ], [ 17.075060669000067, 48.052080994000065 ], [ 17.069686320000102, 48.035673726000098 ], [ 17.148337850000075, 48.005443014 ], [ 17.085602661000053, 47.970148011000092 ], [ 17.095731242000085, 47.955730286000076 ], [ 17.074130493000013, 47.932114157000072 ], [ 17.087463013000047, 47.922631531 ], [ 17.067619262000051, 47.881626282000056 ], [ 17.004057251000091, 47.86328114800007 ], [ 17.055630330000099, 47.812354025000033 ], [ 17.040644165000117, 47.80111440000006 ], [ 17.05056604000012, 47.730989482000027 ], [ 17.075370728000053, 47.708484396000088 ], [ 16.902668091000123, 47.68202606200002 ], [ 16.864737589000129, 47.686728617000071 ], [ 16.850164836000147, 47.712928569 ], [ 16.797454874000039, 47.675463156000021 ], [ 16.730378866000109, 47.685901795000049 ], [ 16.689864543000112, 47.729568380000032 ], [ 16.567804810000041, 47.75419220000002 ], [ 16.531114542000068, 47.742978415000081 ], [ 16.512924438000141, 47.706003927000026 ], [ 16.454530070000061, 47.68176768000005 ], [ 16.439130493000079, 47.690475159000087 ], [ 16.407814575000089, 47.661329651000088 ], [ 16.630229940000106, 47.622003886000087 ], [ 16.656171509000046, 47.585933737000104 ], [ 16.650590454000053, 47.56655507400005 ], [ 16.689141072000012, 47.538029684 ], [ 16.677358846000118, 47.509866028000047 ], [ 16.636844523000093, 47.493200378 ], [ 16.640875284000089, 47.452918600000046 ], [ 16.481918579000109, 47.392302145000073 ], [ 16.456597128000027, 47.411835836000094 ], [ 16.433962850000086, 47.396849671000027 ], [ 16.424351034000068, 47.345199077000089 ], [ 16.473236938000042, 47.276805319000104 ], [ 16.421353800000048, 47.243138123000065 ], [ 16.41277551200011, 47.187172546000042 ], [ 16.441817667000123, 47.177121480000025 ], [ 16.433652792000089, 47.145753886000094 ], [ 16.497318156000091, 47.149681295000065 ], [ 16.50951379300011, 47.137537334000072 ], [ 16.454323364000118, 47.081700949 ], [ 16.493184041000063, 47.04914479600005 ], [ 16.424661092000065, 47.024081726000034 ], [ 16.467552531000109, 47.0184231570001 ], [ 16.486362752000105, 46.998553569000094 ], [ 16.415566040000073, 46.989432679000018 ], [ 16.274902791000073, 47.004315491000071 ], [ 16.223949829000105, 46.941063538 ], [ 16.110054972000086, 46.867915548000028 ], [ 15.981690715000099, 46.827685446 ], [ 15.970528606000073, 46.74301361100008 ], [ 16.014556925000107, 46.693714295000078 ], [ 16.01672257900006, 46.670691342000012 ], [ 15.986961710000116, 46.692189840000069 ], [ 15.850742635000103, 46.724487611000043 ], [ 15.72868290200006, 46.702990215000099 ], [ 15.635975382000055, 46.717562968000053 ], [ 15.626983684000038, 46.680872701000098 ], [ 15.545955037000112, 46.671881002000035 ], [ 15.511228475000081, 46.628369446000121 ], [ 15.462652628000058, 46.614649353000104 ], [ 15.388135214000016, 46.645577698000082 ], [ 15.061953572000107, 46.649556783000079 ], [ 15.004386027000066, 46.636844381000017 ], [ 14.96717899500004, 46.600257467000077 ], [ 14.93358931500012, 46.621134746000067 ], [ 14.850390259000108, 46.601135967000019 ], [ 14.788585245000121, 46.506645610000064 ], [ 14.70972701000008, 46.492512106 ], [ 14.679961385000098, 46.458870748000081 ], [ 14.590147746000099, 46.434427795000019 ], [ 14.540331665000082, 46.378643087000071 ], [ 14.502194458000105, 46.418356426000074 ], [ 14.450931437000065, 46.414480693000101 ], [ 14.395844361000115, 46.440990702000093 ], [ 14.149864543000064, 46.440060527000057 ], [ 14.050025676000132, 46.48439890500002 ], [ 13.98232954900007, 46.481918437000033 ], [ 13.860683228000113, 46.515249736000087 ], [ 13.670255574000066, 46.51871205700003 ], [ 13.478019246000116, 46.563567200000122 ], [ 13.231109253000056, 46.552172547000012 ], [ 13.14646325700005, 46.584961243000024 ], [ 12.830410197000077, 46.609636740000028 ], [ 12.739873088000081, 46.642993876 ], [ 12.547326701000145, 46.652192281000097 ], [ 12.405009806000095, 46.690122783 ], [ 12.370386596000088, 46.71115509000002 ], [ 12.342688029000044, 46.765131124000092 ], [ 12.269100789000049, 46.788566387000046 ], [ 12.266620320000072, 46.868148092000084 ], [ 12.126887247000127, 46.908869120000034 ], [ 12.141666708000031, 46.927989400000044 ], [ 12.111177612000063, 46.9929983520001 ], [ 12.203575073000138, 47.053330588000094 ], [ 12.20419519100011, 47.079685567000055 ], [ 12.180630737000115, 47.085214945000061 ], [ 12.014956096000105, 47.040488994 ], [ 11.899510946000134, 47.027724915000036 ], [ 11.734869832000101, 46.970622457000033 ], [ 11.683813517000118, 46.991913147 ], [ 11.596480347000096, 47.000439758000098 ], [ 11.524443400000024, 46.988347473000047 ], [ 11.471836792000119, 47.007080181000035 ], [ 11.411168661000147, 46.970493266000076 ], [ 11.313810262000089, 46.987262268000038 ], [ 11.174490601000059, 46.963852845000062 ], [ 11.091911662000115, 46.912434795000095 ], [ 11.052844279000084, 46.81492136700011 ], [ 10.996930379000105, 46.769110210000051 ], [ 10.870426473000123, 46.764071757000082 ], [ 10.834149617000065, 46.780246480000088 ], [ 10.722941935000051, 46.786447652000064 ], [ 10.716947469000047, 46.79520680800006 ], [ 10.748676798000133, 46.819443055000036 ], [ 10.738961629000102, 46.829545797 ], [ 10.647080932000051, 46.863755596 ], [ 10.486263875000134, 46.846366475000067 ], [ 10.453811076000136, 46.864427389000056 ], [ 10.458461955000104, 46.936619365000084 ], [ 10.373402547000097, 46.996253967000072 ], [ 10.313664592000066, 46.964317933000089 ], [ 10.295681193000064, 46.922692566000094 ], [ 10.235116415000107, 46.923312684000066 ], [ 10.201423381000069, 46.866830343000018 ], [ 10.111299683000084, 46.847115784000053 ], [ 9.875138387000106, 46.927420960000077 ], [ 9.86242598400014, 46.939771627000127 ], [ 9.870590861000068, 46.998837790000081 ], [ 9.857981812000048, 47.015477600000011 ], [ 9.669052775000097, 47.056198629000065 ], [ 9.581202840000032, 47.056870423000063 ], [ 9.615722697000109, 47.106764018000021 ], [ 9.581822957000099, 47.154900615000074 ], [ 9.552057332000118, 47.166889547000054 ], [ 9.562909383000061, 47.197740377000017 ], [ 9.540378458000134, 47.229107972000051 ], [ 9.547096395000068, 47.243034770000023 ], [ 9.52115482500011, 47.2628010050001 ], [ 9.649519084000104, 47.409717103000034 ], [ 9.650345907000116, 47.452091777000035 ], [ 9.584510132000048, 47.480720521000094 ], [ 9.547481674000068, 47.534547102000047 ], [ 9.676700887000095, 47.522630107000097 ], [ 9.75266524200012, 47.582058004000046 ], [ 9.782120809000048, 47.588414205000063 ], [ 9.807959025000059, 47.576321920000098 ], [ 9.81312666900007, 47.541750387 ], [ 9.945935099000053, 47.540768534000037 ], [ 9.982625366000093, 47.481030579 ], [ 10.022622924000075, 47.487955221000064 ], [ 10.080603881000116, 47.427390442000032 ], [ 10.053215373000086, 47.404859518000094 ], [ 10.082877644000064, 47.359074199000062 ], [ 10.209278198000078, 47.372484233000094 ], [ 10.190778036000069, 47.298251038000032 ], [ 10.159875529000061, 47.271120911000068 ], [ 10.239353882000074, 47.277735494000055 ], [ 10.305913126000064, 47.302178447000088 ], [ 10.371645549000107, 47.367394104000127 ], [ 10.428282918000093, 47.3960486860001 ], [ 10.451950724000113, 47.438759257000115 ], [ 10.447609904000046, 47.472581483000099 ], [ 10.41960127800013, 47.49304535000006 ], [ 10.430970093000042, 47.542163798 ], [ 10.41422692900008, 47.573014628000081 ], [ 10.429213094000147, 47.577019552000067 ], [ 10.457118368000124, 47.579241638000084 ], [ 10.453501017000065, 47.546246236000016 ], [ 10.482543172000135, 47.532862040000069 ], [ 10.536906779000105, 47.529864808000056 ], [ 10.583725627000121, 47.562472636000038 ], [ 10.760769083000127, 47.513638407000045 ], [ 10.858644247000115, 47.530665792 ], [ 10.892233928000053, 47.514878643000102 ], [ 10.851616252000014, 47.493097026000086 ], [ 10.858437540000068, 47.485164693000016 ], [ 10.959826701000111, 47.432506409000027 ], [ 10.955279175000072, 47.409613750000076 ], [ 10.979463745000146, 47.390545146000093 ], [ 11.083746785000102, 47.389511618000128 ], [ 11.193817587000098, 47.42894073500004 ], [ 11.215211629000095, 47.422997945000034 ], [ 11.213041219000019, 47.395816142000044 ], [ 11.237019083000121, 47.393955790000049 ], [ 11.305645385000076, 47.435400290000089 ], [ 11.383883504000039, 47.444857076000076 ], [ 11.388637736000135, 47.462220357 ], [ 11.36548669400014, 47.469325867000023 ], [ 11.412615600000038, 47.506093648 ], [ 11.551211792000089, 47.513690084000061 ], [ 11.589142293000094, 47.570379131000081 ], [ 11.620458211000113, 47.589654440000018 ], [ 11.820342651000118, 47.575288391000115 ], [ 11.851968627000105, 47.599162903 ], [ 11.935891154000018, 47.610738424000047 ], [ 12.173602742000099, 47.605079855 ], [ 12.206779012000112, 47.645568339000093 ], [ 12.20512536600009, 47.672285055000074 ], [ 12.176599976000119, 47.705823059000082 ], [ 12.242229044000055, 47.732023011000095 ], [ 12.223315470000017, 47.695901184000078 ], [ 12.238715047000113, 47.678899639000051 ], [ 12.424130086000076, 47.691560365 ], [ 12.44469730600008, 47.656291199000023 ], [ 12.496580444000074, 47.628902690000061 ], [ 12.653056681000095, 47.675127259000035 ], [ 12.761990600000075, 47.666859029000094 ], [ 12.751655314000061, 47.649392396000039 ], [ 12.81315026900009, 47.611823629000028 ], [ 12.785865112000067, 47.602676901000038 ], [ 12.778940470000094, 47.55482452400004 ], [ 12.931592651000074, 47.473511658000049 ], [ 13.001872599000052, 47.466018576000025 ], [ 13.03732263100008, 47.49304535000006 ], [ 13.028124227000092, 47.541647034000064 ], [ 13.038252807000049, 47.584021709000083 ], [ 13.072049194000044, 47.622417298000116 ], [ 13.072049194000044, 47.659469299000065 ], [ 13.019855998000139, 47.712928569 ], [ 12.964045451000089, 47.705357971000055 ], [ 12.892008504000103, 47.723548076 ], [ 12.99122725400008, 47.847106426000053 ], [ 12.931075887000105, 47.924879456 ], [ 12.862036173000149, 47.962551575000035 ], [ 12.830616903000134, 48.015468242000011 ], [ 12.750931844000064, 48.07474111 ], [ 12.736979207000076, 48.099959209000062 ], [ 12.745040731000074, 48.12062978200008 ], [ 12.862552938000107, 48.196645813000046 ], [ 12.933039591000068, 48.209254863000055 ], [ 13.032775106000145, 48.26356679300001 ], [ 13.274207397000055, 48.307104187000036 ], [ 13.405568888000062, 48.37658315100002 ], [ 13.459209025000121, 48.516393738000019 ], [ 13.440088745000111, 48.560964661000028 ], [ 13.454558146000068, 48.57344451900012 ], [ 13.520703979000132, 48.58458079100005 ], [ 13.624366902000105, 48.565357158000026 ], [ 13.716505981000125, 48.521690572000054 ], [ 13.733869263000145, 48.559776103 ], [ 13.774280233000127, 48.569207052000067 ], [ 13.802392211000068, 48.611710918000099 ], [ 13.800945272000064, 48.675221253000061 ], [ 13.816861612000082, 48.695581767000093 ], [ 13.783581991000062, 48.715270488000058 ], [ 13.815724731000074, 48.766430156000055 ], [ 13.98232954900007, 48.706485494000063 ], [ 14.034729451000089, 48.661165263000058 ], [ 14.00620406000013, 48.639512838000073 ], [ 14.015195760000097, 48.620392558000063 ], [ 14.074830363000075, 48.59171213900008 ], [ 14.325357706000148, 48.558639221000092 ], [ 14.405352823000101, 48.586286113000099 ], [ 14.458166137000148, 48.643181865000074 ], [ 14.533820434000091, 48.60871368400008 ], [ 14.594178507000095, 48.621322734000032 ], [ 14.605133911000081, 48.600316264000114 ], [ 14.634692831000109, 48.602331645000064 ], [ 14.675620565000116, 48.576235046000065 ], [ 14.695671020000077, 48.589541728000071 ], [ 14.70383589700009, 48.673102519000096 ], [ 14.775356079000119, 48.724003805000038 ], [ 14.800367472000119, 48.776507060000071 ], [ 14.939583781000039, 48.762812806000071 ], [ 14.951055949000079, 48.780331116000028 ], [ 14.938136840000141, 48.802810364000024 ], [ 14.968212524000108, 48.885027568000069 ], [ 14.964595174000038, 48.971740622000127 ], [ 14.982061808000083, 49.007914124000067 ], [ 15.137401164000096, 48.993031311000024 ], [ 15.141948689000117, 48.937479147000019 ], [ 15.238066854000039, 48.950759989000048 ], [ 15.27455041500005, 48.986726787000109 ], [ 15.450353638000109, 48.944817200000031 ], [ 15.681347290000076, 48.858465882000061 ], [ 15.818496541000059, 48.872315165000018 ], [ 15.833276001000058, 48.852006328000087 ], [ 15.885985961000102, 48.842032776000096 ], [ 15.875754028000102, 48.833092753000059 ], [ 15.899628540000094, 48.8347464000001 ], [ 15.931771281000124, 48.806427714 ], [ 16.085353638000072, 48.74286570200006 ], [ 16.358308553000114, 48.72725942000001 ], [ 16.38497359200008, 48.737077943000074 ], [ 16.435719848000048, 48.794542135000071 ], [ 16.519539022000117, 48.805600891 ], [ 16.643149047000122, 48.778264059000051 ], [ 16.675085083000084, 48.733925679000023 ], [ 16.798901814000118, 48.70922434500001 ], [ 16.87300581900007, 48.718991191000057 ], [ 16.896673625000091, 48.69697703000007 ], [ 16.910522908000075, 48.630779521000093 ], [ 16.945042766000142, 48.604166158000069 ] ] ] } },
{ "type": "Feature", "properties": { "iso3": "HRV", "name": "Croatia" }, "geometry": { "type": "MultiPolygon", "coordinates": [ [ [ [ 16.515301554000075, 46.501710510000109 ], [ 16.577623332000115, 46.470652975000078 ], [ 16.59426314300012, 46.4829778040001 ], [ 16.659272095000091, 46.464193421000019 ], [ 16.755080200000123, 46.381872864000044 ], [ 16.769342895000108, 46.396109721000116 ], [ 16.837659139000067, 46.381872864000044 ], [ 16.875072876000047, 46.342857158000058 ], [ 16.889232218000075, 46.29216257800006 ], [ 17.052943156000055, 46.153463033 ], [ 17.116195109000046, 46.123128967000056 ], [ 17.208592570000064, 46.116566060000068 ], [ 17.248590128000018, 46.080237529 ], [ 17.275875285000041, 46.012024638000057 ], [ 17.316803019000048, 45.997658590000057 ], [ 17.290137980000111, 45.984636129000123 ], [ 17.327138306000052, 45.972027079999989 ], [ 17.337887003000077, 45.984636129000123 ], [ 17.345328410000093, 45.955697327000067 ], [ 17.389150024000116, 45.963087057000067 ], [ 17.406203247000036, 45.943656718000071 ], [ 17.426667114000111, 45.956730855000032 ], [ 17.511933228000061, 45.953940328000087 ], [ 17.59110152100007, 45.936215312000073 ], [ 17.64577518700014, 45.891825256000104 ], [ 17.65652388500007, 45.845419820000089 ], [ 17.809176066000134, 45.814413961000056 ], [ 17.858061971000012, 45.771729228000069 ], [ 17.889791300000127, 45.792141418000099 ], [ 18.08047733500004, 45.771729228000069 ], [ 18.211218709000065, 45.785371806000072 ], [ 18.317672160000086, 45.747286275000121 ], [ 18.367178182000146, 45.758190003 ], [ 18.404385213000069, 45.741808574000046 ], [ 18.481796509000077, 45.791417949000035 ], [ 18.530269002000068, 45.790849508000051 ], [ 18.573470499000109, 45.81668772400009 ], [ 18.655636027000128, 45.90758656800007 ], [ 18.775525350000095, 45.882833557000069 ], [ 18.804877563000076, 45.913632711000034 ], [ 18.828338664000057, 45.905726217000066 ], [ 18.90130578600008, 45.931202698 ], [ 18.906990194000116, 45.915699768000096 ], [ 18.872883748000049, 45.895235901000021 ], [ 18.906990194000116, 45.867950745000101 ], [ 18.855313761000076, 45.857357076000127 ], [ 18.844978475000062, 45.815705872000123 ], [ 18.900168904000054, 45.764907939000111 ], [ 18.917325480000045, 45.706565247000057 ], [ 18.968485148000127, 45.668738098000077 ], [ 18.912364542000091, 45.619232076000046 ], [ 18.903579549000085, 45.573085022 ], [ 18.941716757000052, 45.538926900000021 ], [ 19.018094523000116, 45.56740061400005 ], [ 19.106254517000053, 45.511641745000091 ], [ 19.077212362000068, 45.491642965000054 ], [ 19.009619588000106, 45.49867095900008 ], [ 18.997144016269534, 45.455516941222648 ], [ 19.031318659791033, 45.416201044749599 ], [ 18.975527407984831, 45.391129634348331 ], [ 18.977491387120342, 45.371208750191805 ], [ 19.08295634672233, 45.339224357415532 ], [ 19.1041470909989, 45.298725651662807 ], [ 19.158482332733676, 45.276171379377523 ], [ 19.289749828046425, 45.236310130920906 ], [ 19.378072550000098, 45.229591777000067 ], [ 19.407838175000109, 45.203133444000073 ], [ 19.39068160000005, 45.169337057000078 ], [ 19.304278605000064, 45.166546530000048 ], [ 19.286708618000091, 45.179517314000051 ], [ 19.225937133000087, 45.161947327000078 ], [ 19.185319458000038, 45.16804514600004 ], [ 19.143874959000073, 45.199516093000099 ], [ 19.121860799000103, 45.195795390000072 ], [ 19.137673787000097, 45.146030986000071 ], [ 19.044862915000067, 45.137245993000064 ], [ 19.082276652000132, 45.08494944300007 ], [ 19.09540246600011, 45.020922343000066 ], [ 19.087237589000097, 44.977100728000053 ], [ 19.118553507000087, 44.975550436000034 ], [ 19.131679321000064, 44.953174540000063 ], [ 19.066670369000093, 44.905683899000067 ], [ 19.018404582000102, 44.925682678 ], [ 18.991429484000065, 44.914933980000072 ], [ 19.015820760000082, 44.865634664000069 ], [ 18.889626912000097, 44.861190491000073 ], [ 18.783380167000132, 44.913745423000037 ], [ 18.772631469000117, 44.942477519000064 ], [ 18.80456750500008, 44.973845113000081 ], [ 18.791751749000099, 45.001543681 ], [ 18.738318319000086, 45.015909729 ], [ 18.684058065000045, 45.084794414000029 ], [ 18.648711385000126, 45.062676900000028 ], [ 18.61667199700014, 45.097661845000019 ], [ 18.549595988000107, 45.094767965000031 ], [ 18.534919881000121, 45.090427145000049 ], [ 18.541121053000097, 45.055287171000103 ], [ 18.517039835000077, 45.055855612000059 ], [ 18.412033325000039, 45.112441305000047 ], [ 18.322323039000054, 45.122879944000076 ], [ 18.237883748000115, 45.157451477000066 ], [ 18.202330363000073, 45.144067281000034 ], [ 18.192511841000083, 45.108513896000076 ], [ 18.153651164000024, 45.097558493000079 ], [ 18.090295857000115, 45.107997131000033 ], [ 18.003479451000118, 45.149338278000059 ], [ 17.911185343000056, 45.08107371100003 ], [ 17.835737752000057, 45.064433899000093 ], [ 17.684739217000129, 45.163962708000028 ], [ 17.629962199000147, 45.157348125000041 ], [ 17.572394653000089, 45.120399476 ], [ 17.481857544000093, 45.114405009000066 ], [ 17.496223592000092, 45.141690165000071 ], [ 17.447751099000129, 45.134300436000061 ], [ 17.458086385000058, 45.146134339000085 ], [ 17.443306925000115, 45.16205068 ], [ 17.382432088000087, 45.139623109000027 ], [ 17.268950643000068, 45.189542542000069 ], [ 17.245489543000076, 45.15538442000009 ], [ 17.18709517400012, 45.148563131000046 ], [ 17.055733683000113, 45.200446269000039 ], [ 17.036303344000146, 45.230470276000105 ], [ 17.008294718000116, 45.216155905 ], [ 17.008294718000116, 45.244164531000123 ], [ 16.998682902000013, 45.231400452000045 ], [ 16.961165812000019, 45.250934143000066 ], [ 16.967987101000091, 45.237291566000053 ], [ 16.947316529000148, 45.235689596000029 ], [ 16.924372193000124, 45.284523825000079 ], [ 16.830734497000094, 45.21698272700003 ], [ 16.811717570000013, 45.181222637000118 ], [ 16.528944133000095, 45.222253724000083 ], [ 16.481918579000109, 45.199516093000099 ], [ 16.435513143000094, 45.132853496000067 ], [ 16.389211060000036, 45.116833801000027 ], [ 16.340635213000041, 45.005936178000084 ], [ 16.316243937000081, 45.001233623000118 ], [ 16.212994426000137, 45.031464335000024 ], [ 16.121527140000097, 45.096163229000112 ], [ 16.067473592000113, 45.169595439000076 ], [ 16.024375447000097, 45.18432322200006 ], [ 16.020448039000115, 45.213933818000029 ], [ 15.878854614000147, 45.217241109000028 ], [ 15.824801066000077, 45.210988261000111 ], [ 15.792348267000136, 45.189800924000068 ], [ 15.783769979000112, 45.100917460000105 ], [ 15.755968059000054, 45.042213033000067 ], [ 15.763616170000148, 44.975550436000034 ], [ 15.730853312000136, 44.927232972000112 ], [ 15.773434692000109, 44.845015768000067 ], [ 15.768680460000013, 44.82734242800008 ], [ 15.716073852000108, 44.803209534000118 ], [ 15.728476196000088, 44.769103088000051 ], [ 15.805680786000067, 44.696652730000054 ], [ 15.888776489000065, 44.724247945000073 ], [ 15.905416301000059, 44.6901415 ], [ 15.948101034000075, 44.678100891000028 ], [ 15.968978312000047, 44.639240214000054 ], [ 16.028302856000067, 44.624719137000014 ], [ 16.044735962000118, 44.589372457000096 ], [ 16.006081990000041, 44.541003316000072 ], [ 16.026649210000102, 44.525190328000079 ], [ 16.083699991000117, 44.534905497000111 ], [ 16.116462850000119, 44.521469625000051 ], [ 16.159664347000046, 44.416101380000029 ], [ 16.138270305000049, 44.377602438000068 ], [ 16.202865844000087, 44.359774068000021 ], [ 16.187569620000119, 44.282414450000019 ], [ 16.21578495300011, 44.208155416000025 ], [ 16.275522908000113, 44.157357483000041 ], [ 16.326889282000081, 44.082374980000068 ], [ 16.367196899000135, 44.058138733000064 ], [ 16.414015747000064, 44.055813293000043 ], [ 16.439647258000036, 44.014007060000083 ], [ 16.50103885900009, 43.99271637 ], [ 16.678599081000044, 43.840684306000085 ], [ 16.712602173000079, 43.771515401 ], [ 16.823809855000093, 43.707307434000043 ], [ 17.030515585000074, 43.548479919 ], [ 17.142756795000054, 43.489336243000125 ], [ 17.270500936000076, 43.463213807000031 ], [ 17.286417277000083, 43.43737559 ], [ 17.267607055000099, 43.353323873000065 ], [ 17.289931275000043, 43.303430278000022 ], [ 17.400208781000117, 43.216045431000069 ], [ 17.442066691000093, 43.152431743000093 ], [ 17.587380818000071, 43.082125957000088 ], [ 17.628411905000121, 43.046572571000027 ], [ 17.662725057000046, 42.965698955000065 ], [ 17.634509724000083, 42.950402731000096 ], [ 17.580658399000072, 42.942084052000041 ], [ 17.515635613000086, 42.958889065000051 ], [ 17.470876498000052, 43.013413804000038 ], [ 17.501963738000086, 43.030991929000038 ], [ 17.433604363000086, 43.017401434000078 ], [ 17.460215691000087, 43.030991929000038 ], [ 17.432302280000044, 43.036200262000079 ], [ 17.426117384000065, 43.065171617000033 ], [ 17.404551629000082, 43.051499742000033 ], [ 17.316254102000073, 43.12726471600007 ], [ 17.113942905000044, 43.21320221600007 ], [ 16.88062584700009, 43.405951239000046 ], [ 16.625824415000068, 43.449042059000078 ], [ 16.524668816000087, 43.510809637000079 ], [ 16.391449415000068, 43.510809637000079 ], [ 16.473399285000085, 43.538153387000079 ], [ 16.433848504000082, 43.549750067000048 ], [ 16.117686394000089, 43.524481512000079 ], [ 16.172373894000089, 43.48969147300005 ], [ 16.110850457000083, 43.48969147300005 ], [ 16.113129102000073, 43.478908596000053 ], [ 15.959483269000089, 43.503973700000074 ], [ 15.983653191000087, 43.521063544000071 ], [ 15.987315300000091, 43.544907945000034 ], [ 15.959483269000089, 43.538153387000079 ], [ 15.925303582000083, 43.558579820000034 ], [ 15.944183790000068, 43.56671784100007 ], [ 15.917979363000086, 43.57290273600006 ], [ 15.932139519000089, 43.58657461100006 ], [ 15.917979363000086, 43.593329169000071 ], [ 15.918955925000091, 43.628729559000078 ], [ 15.966319207000083, 43.641180731000077 ], [ 15.904795769000089, 43.648016669000071 ], [ 15.952972852000073, 43.650864976000037 ], [ 15.932139519000089, 43.668443101000037 ], [ 15.950450066000087, 43.688544012000079 ], [ 15.938975457000083, 43.696437893000052 ], [ 15.931162957000083, 43.676499742000033 ], [ 15.792165561000047, 43.754461981000077 ], [ 15.706309441000087, 43.763413804000038 ], [ 15.682139519000089, 43.79718659100007 ], [ 15.617442254000082, 43.825506903000075 ], [ 15.663096550000091, 43.812974351000037 ], [ 15.678884311000047, 43.819281317000048 ], [ 15.455088738000086, 43.92804596600007 ], [ 15.358083530000044, 44.02570221600007 ], [ 15.144541863000086, 44.195461330000057 ], [ 15.160411004000082, 44.21320221600007 ], [ 15.152191602000073, 44.235296942000048 ], [ 15.110362175000091, 44.264349677000041 ], [ 15.140635613000086, 44.282456773000035 ], [ 15.176605665000068, 44.249945380000042 ], [ 15.207774285000085, 44.272772528000075 ], [ 15.185394727000073, 44.285386460000041 ], [ 15.206553582000083, 44.285386460000041 ], [ 15.198090040000068, 44.301662502000056 ], [ 15.295258009000065, 44.250677802000041 ], [ 15.281748894000089, 44.285386460000041 ], [ 15.302744988000086, 44.29913971600007 ], [ 15.261241082000083, 44.332586981000077 ], [ 15.424489780000044, 44.267971096000053 ], [ 15.50359134200005, 44.25922272300005 ], [ 15.52865644600007, 44.27179596600007 ], [ 15.449229363000086, 44.285386460000041 ], [ 15.40601647200009, 44.32062409100007 ], [ 15.30795332100007, 44.354396877000056 ], [ 15.080088738000086, 44.536078192000048 ], [ 15.007334832000083, 44.569728908000059 ], [ 14.883799675000091, 44.723618882000039 ], [ 14.895192905000044, 44.736151434000078 ], [ 14.883799675000091, 44.861476955000057 ], [ 14.92164147200009, 44.958807684000078 ], [ 14.852793816000087, 45.093654690000051 ], [ 14.65788821700005, 45.196600653000075 ], [ 14.576019727000073, 45.262274481000077 ], [ 14.570811394000089, 45.293646552000041 ], [ 14.534353061000047, 45.312689520000049 ], [ 14.555430535000085, 45.295884507000039 ], [ 14.533050977000073, 45.283880927000041 ], [ 14.402354363000086, 45.338609117000033 ], [ 14.32976321700005, 45.353989976000037 ], [ 14.311534050000091, 45.343980210000041 ], [ 14.271983269000089, 45.290106512000079 ], [ 14.232595248000052, 45.149359442000048 ], [ 14.209239129000082, 45.126369533000059 ], [ 14.17937259200005, 45.134507554000038 ], [ 14.19312584700009, 45.105617580000057 ], [ 14.158213738000086, 45.08734772300005 ], [ 14.158213738000086, 45.053208726000037 ], [ 14.14389082100007, 45.059393622000073 ], [ 14.166188998000052, 45.018947658000059 ], [ 14.151377800000091, 44.977484442000048 ], [ 14.10132897200009, 44.974269924000055 ], [ 14.068858269000089, 44.94953034100007 ], [ 14.083832227000073, 44.986395575000074 ], [ 14.040293816000087, 45.038967190000051 ], [ 14.04428144600007, 45.00141022300005 ], [ 14.075694207000083, 44.983710028000075 ], [ 14.034678582000083, 44.956366278000075 ], [ 14.039073113000086, 44.931830145000049 ], [ 14.020518425000091, 44.901109117000033 ], [ 13.972666863000086, 44.901109117000033 ], [ 13.993011915000068, 44.881293036000045 ], [ 13.972666863000086, 44.826646226000037 ], [ 14.000010613000086, 44.813055731000077 ], [ 13.924815300000091, 44.813055731000077 ], [ 13.918711785000085, 44.829046942000048 ], [ 13.890147332000083, 44.833482164000088 ], [ 13.917979363000086, 44.778265692000048 ], [ 13.903168165000068, 44.772406317000048 ], [ 13.896983269000089, 44.813055731000077 ], [ 13.849131707000083, 44.826646226000037 ], [ 13.842295769000089, 44.854641018000052 ], [ 13.787119988000086, 44.875067450000074 ], [ 13.819590691000087, 44.867661851000037 ], [ 13.842295769000089, 44.88812897300005 ], [ 13.79460696700005, 44.894964911000045 ], [ 13.808116082000083, 44.915432033000059 ], [ 13.774099155000044, 44.963812567000048 ], [ 13.660817905000044, 45.061224677000041 ], [ 13.623220248000052, 45.073065497000073 ], [ 13.636892123000052, 45.093573309000078 ], [ 13.612559441000087, 45.117865302000041 ], [ 13.72624759200005, 45.134507554000038 ], [ 13.595957879000082, 45.145412502000056 ], [ 13.582286004000082, 45.196600653000075 ], [ 13.595225457000083, 45.250799872000073 ], [ 13.575450066000087, 45.264878648000035 ], [ 13.602712436000047, 45.285345770000049 ], [ 13.575450066000087, 45.306463934000078 ], [ 13.609548373000052, 45.320135809000078 ], [ 13.561778191000087, 45.326361395000049 ], [ 13.541270379000082, 45.346136786000045 ], [ 13.554942254000082, 45.367336330000057 ], [ 13.51335696700005, 45.436224677000041 ], [ 13.507090691000087, 45.511908270000049 ], [ 13.58952884200005, 45.488836981000077 ], [ 13.624106924762254, 45.462745236435083 ], [ 13.759294068000145, 45.463169251000025 ], [ 13.819858846000102, 45.432628480000048 ], [ 13.889001912000083, 45.42363678 ], [ 13.982639608000056, 45.475313212000046 ], [ 13.96145227000008, 45.493141581000074 ], [ 13.971890910000127, 45.514225566 ], [ 14.092917114000102, 45.47391794800005 ], [ 14.218697551000076, 45.497172344000077 ], [ 14.37279667100006, 45.477845358000124 ], [ 14.468914835000078, 45.52559438100009 ], [ 14.49857710800012, 45.596184388000083 ], [ 14.580949341000093, 45.667807922000023 ], [ 14.603066853000115, 45.603574117000065 ], [ 14.669832804000066, 45.564558411000078 ], [ 14.668489217000086, 45.533965963000057 ], [ 14.781247192000109, 45.493348288000035 ], [ 14.797163533000059, 45.465184632000089 ], [ 14.881602823000094, 45.46978383400004 ], [ 14.904443807000092, 45.514432272000064 ], [ 14.922633911000048, 45.51494903600009 ], [ 15.007383260000069, 45.480842591000041 ], [ 15.056165812000131, 45.479912415000072 ], [ 15.139261515000101, 45.430044658000028 ], [ 15.325193318000117, 45.452833964000021 ], [ 15.361366821000047, 45.482031149000065 ], [ 15.296667928000062, 45.522958883000072 ], [ 15.268555948000113, 45.601662089000072 ], [ 15.297391398000059, 45.625691631000095 ], [ 15.373769165000112, 45.64021270800005 ], [ 15.330774373000054, 45.684551087000088 ], [ 15.283025350000059, 45.680106913000074 ], [ 15.250882609000115, 45.707650452000067 ], [ 15.255016723000068, 45.72346344000006 ], [ 15.429062947000148, 45.775294902000027 ], [ 15.451283813000089, 45.815137431000053 ], [ 15.626053508000069, 45.820201721000032 ], [ 15.676076294000069, 45.84169911700009 ], [ 15.659436483000036, 45.888828024000091 ], [ 15.675559530000015, 45.925156556000061 ], [ 15.674215943000149, 45.993162740000045 ], [ 15.697987101000109, 46.036209208000045 ], [ 15.631531209000059, 46.070574036000053 ], [ 15.589880005000055, 46.113517151000039 ], [ 15.604349406000068, 46.167002258000068 ], [ 15.639799438000097, 46.20767161000002 ], [ 15.749766886000089, 46.210772197000054 ], [ 15.818289835000087, 46.255523987000018 ], [ 16.019207804000075, 46.298828837000073 ], [ 16.059618774000057, 46.332315166000072 ], [ 16.05796512800012, 46.377532044000063 ], [ 16.10602421100009, 46.373733826000048 ], [ 16.143851359000053, 46.394714458000053 ], [ 16.191807088000076, 46.36978057900005 ], [ 16.27562626200006, 46.373165385000092 ], [ 16.278726847000087, 46.387350566000052 ], [ 16.250924927000142, 46.40499806800004 ], [ 16.234905233000092, 46.493338928000028 ], [ 16.344149210000069, 46.546979065000116 ], [ 16.515301554000075, 46.501710510000109 ] ] ], [ [ [ 18.43735477700011, 42.559212138000092 ], [ 18.437148071000053, 42.493402202000127 ], [ 18.492855265000088, 42.442371724000068 ], [ 18.496429884000065, 42.41632721600007 ], [ 18.474457227000073, 42.441351630000042 ], [ 18.238942905000044, 42.559068101000037 ], [ 18.220550977000073, 42.579169012000079 ], [ 18.217539910000085, 42.620103257000039 ], [ 18.076019727000073, 42.651312567000048 ], [ 18.057383660000085, 42.667914130000042 ], [ 18.077321811000047, 42.667914130000042 ], [ 18.043223504000082, 42.702053127000056 ], [ 18.028330925000091, 42.691310940000051 ], [ 17.901621941000087, 42.751898505000042 ], [ 17.880707227000073, 42.768744208000044 ], [ 17.892832879000082, 42.790838934000078 ], [ 17.806651238000086, 42.811916408000059 ], [ 17.780121290000068, 42.796942450000074 ], [ 17.720957879000082, 42.826239325000074 ], [ 17.761892123000052, 42.778713283000059 ], [ 17.748708530000044, 42.772040106000077 ], [ 17.748871290000068, 42.790838934000078 ], [ 17.728770379000082, 42.800767320000034 ], [ 17.440440300000091, 42.87335846600007 ], [ 17.44271894600007, 42.898627020000049 ], [ 17.417246941000087, 42.911200262000079 ], [ 17.35092207100007, 42.921779690000051 ], [ 17.213877800000091, 42.982611395000049 ], [ 17.046153191000087, 42.995062567000048 ], [ 17.017914259000065, 43.013820705000057 ], [ 17.028168165000068, 43.030991929000038 ], [ 17.00163821700005, 43.051499742000033 ], [ 17.073252800000091, 43.024155992000033 ], [ 17.240244988000086, 43.022772528000075 ], [ 17.390472852000073, 42.977728583000044 ], [ 17.454112175000091, 42.942287502000056 ], [ 17.460215691000087, 42.921779690000051 ], [ 17.558929884000065, 42.912827867000033 ], [ 17.741465691000087, 42.839260158000059 ], [ 17.701914910000085, 42.868475653000075 ], [ 17.707367384000065, 42.88703034100007 ], [ 17.653330925000091, 42.89093659100007 ], [ 17.701585734000105, 42.919500225 ], [ 17.78674849500004, 42.901387635000063 ], [ 17.811759887000051, 42.909862570000072 ], [ 17.827159464000118, 42.853121847000054 ], [ 17.858475382000023, 42.816974182000038 ], [ 17.904467407000112, 42.804546 ], [ 17.995314575000094, 42.740441387000047 ], [ 18.22413781700007, 42.628070985000122 ], [ 18.338652791000101, 42.60251698900008 ], [ 18.385264933000144, 42.566524353 ], [ 18.43735477700011, 42.559212138000092 ] ] ], [ [ [ 16.81023196700005, 42.775336005000042 ], [ 16.921071811000047, 42.777167059000078 ], [ 16.936371290000068, 42.755519924000055 ], [ 16.905446811000047, 42.731756903000075 ], [ 16.820811394000089, 42.736070054000038 ], [ 16.809825066000087, 42.749823309000078 ], [ 16.824066602000073, 42.764064846000053 ], [ 16.802989129000082, 42.763495184000078 ], [ 16.81023196700005, 42.775336005000042 ] ] ], [ [ [ 17.658946160000085, 42.742987372000073 ], [ 17.748871290000068, 42.694566148000035 ], [ 17.385915561000047, 42.77094147300005 ], [ 17.373789910000085, 42.759995835000041 ], [ 17.323741082000083, 42.790838934000078 ], [ 17.39234459700009, 42.801703192000048 ], [ 17.371592644000089, 42.790838934000078 ], [ 17.48601321700005, 42.782171942000048 ], [ 17.590668165000068, 42.742987372000073 ], [ 17.658946160000085, 42.742987372000073 ] ] ], [ [ [ 17.131846550000091, 42.969549872000073 ], [ 17.200205925000091, 42.921779690000051 ], [ 16.972911004000082, 42.926703192000048 ], [ 16.851410352000073, 42.90070221600007 ], [ 16.655446811000047, 42.926255601000037 ], [ 16.63843834700009, 42.934759833000044 ], [ 16.70679772200009, 42.969549872000073 ], [ 16.631683790000068, 42.982611395000049 ], [ 16.72046959700009, 42.990057684000078 ], [ 16.824066602000073, 42.962103583000044 ], [ 17.032074415000068, 42.982611395000049 ], [ 17.131846550000091, 42.969549872000073 ] ] ], [ [ [ 16.13021894600007, 43.088446356000077 ], [ 16.253428582000083, 43.077866929000038 ], [ 16.252126498000052, 43.062404690000051 ], [ 16.21029707100007, 43.033270575000074 ], [ 16.087168816000087, 43.011460679000038 ], [ 16.063161655000044, 43.017401434000078 ], [ 16.084483269000089, 43.025946356000077 ], [ 16.079112175000091, 43.053290106000077 ], [ 16.048838738000086, 43.065171617000033 ], [ 16.13021894600007, 43.088446356000077 ] ] ], [ [ [ 16.69312584700009, 43.12726471600007 ], [ 16.559825066000087, 43.142971096000053 ], [ 16.371592644000089, 43.195502020000049 ], [ 16.496429884000065, 43.218085028000075 ], [ 16.583262566000087, 43.188666083000044 ], [ 16.520518425000091, 43.228989976000037 ], [ 16.562754754000082, 43.228989976000037 ], [ 16.583262566000087, 43.215969143000052 ], [ 16.65951582100007, 43.215969143000052 ], [ 16.686289910000085, 43.181830145000049 ], [ 16.727712436000047, 43.164618231000077 ], [ 16.864431186000047, 43.168850002000056 ], [ 17.193369988000086, 43.12726471600007 ], [ 16.69312584700009, 43.12726471600007 ] ] ], [ [ [ 16.500743035000085, 43.284247137000079 ], [ 16.421885613000086, 43.317572333000044 ], [ 16.405772332000083, 43.332709052000041 ], [ 16.426280144000089, 43.325181382000039 ], [ 16.453461134000065, 43.353176174000055 ], [ 16.426280144000089, 43.394110419000071 ], [ 16.687673373000052, 43.377020575000074 ], [ 16.809825066000087, 43.353176174000055 ], [ 16.796153191000087, 43.346380927000041 ], [ 16.830332879000082, 43.346380927000041 ], [ 16.89234459700009, 43.312201239000046 ], [ 16.872325066000087, 43.287990627000056 ], [ 16.813161655000044, 43.267767645000049 ], [ 16.62826582100007, 43.263739325000074 ], [ 16.500743035000085, 43.284247137000079 ] ] ], [ [ [ 16.391449415000068, 43.346380927000041 ], [ 16.375987175000091, 43.33344147300005 ], [ 16.348643425000091, 43.338690497000073 ], [ 16.207041863000086, 43.387274481000077 ], [ 16.200450066000087, 43.407049872000073 ], [ 16.27702884200005, 43.411932684000078 ], [ 16.391449415000068, 43.346380927000041 ] ] ], [ [ [ 15.65015709700009, 43.673041083000044 ], [ 15.740407748000052, 43.627508856000077 ], [ 15.672048373000052, 43.637437242000033 ], [ 15.603770379000082, 43.674709377000056 ], [ 15.65015709700009, 43.673041083000044 ] ] ], [ [ [ 15.227793816000087, 43.87445709800005 ], [ 15.266368035000085, 43.857001044000071 ], [ 15.395681186000047, 43.772406317000048 ], [ 15.308929884000065, 43.805609442000048 ], [ 15.227793816000087, 43.87445709800005 ] ] ], [ [ [ 15.35678144600007, 43.935370184000078 ], [ 15.261241082000083, 44.011053778000075 ], [ 15.384043816000087, 43.97016022300005 ], [ 15.391612175000091, 43.942206122000073 ], [ 15.426768425000091, 43.922064520000049 ], [ 15.446055535000085, 43.887518622000073 ], [ 15.358653191000087, 43.91937897300005 ], [ 15.35678144600007, 43.935370184000078 ] ] ], [ [ [ 15.254405144000089, 44.01788971600007 ], [ 15.223317905000044, 44.050279039000088 ], [ 15.206553582000083, 44.04523346600007 ], [ 15.199066602000073, 44.058823960000041 ], [ 15.18913821700005, 44.047796942000048 ], [ 15.121836785000085, 44.092230536000045 ], [ 15.068695509000065, 44.133978583000044 ], [ 15.062510613000086, 44.161932684000078 ], [ 15.225759311000047, 44.066229559000078 ], [ 15.254405144000089, 44.01788971600007 ] ] ], [ [ [ 14.822438998000052, 44.168687242000033 ], [ 14.869151238000086, 44.140529690000051 ], [ 14.835215691000087, 44.141669012000079 ], [ 14.819834832000083, 44.153021552000041 ], [ 14.822438998000052, 44.168687242000033 ] ] ], [ [ [ 15.041351759000065, 44.026434637000079 ], [ 15.216807488000086, 43.912787177000041 ], [ 15.220225457000083, 43.901190497000073 ], [ 15.195485873000052, 43.895209052000041 ], [ 15.133311394000089, 43.921210028000075 ], [ 15.196787957000083, 43.886379299000055 ], [ 15.194509311000047, 43.872626044000071 ], [ 15.106618686000047, 43.925441799000055 ], [ 15.003103061000047, 44.052313544000071 ], [ 14.870127800000091, 44.140814520000049 ], [ 14.849619988000086, 44.175604559000078 ], [ 14.93913821700005, 44.127142645000049 ], [ 14.95443769600007, 44.103216864000046 ], [ 15.007334832000083, 44.093003648000035 ], [ 15.000498894000089, 44.079413153000075 ], [ 15.022715691000087, 44.072211005000042 ], [ 15.041351759000065, 44.026434637000079 ] ] ], [ [ [ 14.876963738000086, 44.559759833000044 ], [ 14.76148522200009, 44.658636786000045 ], [ 14.733653191000087, 44.703192450000074 ], [ 14.845225457000083, 44.600531317000048 ], [ 14.883799675000091, 44.579657294000071 ], [ 14.880137566000087, 44.609198309000078 ], [ 14.90406334700009, 44.61001211100006 ], [ 15.003916863000086, 44.536078192000048 ], [ 15.041188998000052, 44.527492580000057 ], [ 15.07553144600007, 44.484076239000046 ], [ 14.911143425000091, 44.552313544000071 ], [ 14.965993686000047, 44.523871161000045 ], [ 15.048024936000047, 44.439439195000034 ], [ 15.096690300000091, 44.415187893000052 ], [ 15.041514519000089, 44.476629950000074 ], [ 15.083262566000087, 44.461859442000048 ], [ 15.254405144000089, 44.340033270000049 ], [ 15.165049675000091, 44.367377020000049 ], [ 15.215830925000091, 44.338120835000041 ], [ 15.227061394000089, 44.326361395000049 ], [ 15.206553582000083, 44.326361395000049 ], [ 15.220225457000083, 44.312730210000041 ], [ 15.130869988000086, 44.332586981000077 ], [ 15.172373894000089, 44.29913971600007 ], [ 15.128754102000073, 44.311997789000088 ], [ 15.096690300000091, 44.340033270000049 ], [ 15.110362175000091, 44.353705145000049 ], [ 15.08920332100007, 44.374212958000044 ], [ 15.117198113000086, 44.387193101000037 ], [ 15.083018425000091, 44.401516018000052 ], [ 15.049001498000052, 44.394680080000057 ], [ 15.020762566000087, 44.42999909100007 ], [ 14.897471550000091, 44.490912177000041 ], [ 14.918630405000044, 44.50454336100006 ], [ 14.876963738000086, 44.559759833000044 ] ] ], [ [ [ 14.40406334700009, 44.610337632000039 ], [ 14.534353061000047, 44.484076239000046 ], [ 14.485036655000044, 44.50063711100006 ], [ 14.438161655000044, 44.538641669000071 ], [ 14.466075066000087, 44.538641669000071 ], [ 14.422618035000085, 44.573879299000055 ], [ 14.36304772200009, 44.573431708000044 ], [ 14.38257897200009, 44.603257554000038 ], [ 14.34937584700009, 44.655340887000079 ], [ 14.335785352000073, 44.716782945000034 ], [ 14.397471550000091, 44.685614325000074 ], [ 14.40406334700009, 44.610337632000039 ] ] ], [ [ [ 14.740489129000082, 44.778265692000048 ], [ 14.754079623000052, 44.757757880000042 ], [ 14.699473504000082, 44.765204169000071 ], [ 14.65788821700005, 44.798773505000042 ], [ 14.705739780000044, 44.792547919000071 ], [ 14.699473504000082, 44.813055731000077 ], [ 14.726817254000082, 44.798773505000042 ], [ 14.685801629000082, 44.847154039000088 ], [ 14.75326582100007, 44.845851955000057 ], [ 14.740489129000082, 44.820502020000049 ], [ 14.822438998000052, 44.771429755000042 ], [ 14.85906009200005, 44.717352606000077 ], [ 14.849619988000086, 44.703192450000074 ], [ 14.740489129000082, 44.778265692000048 ] ] ], [ [ [ 14.513926629000082, 44.662176825000074 ], [ 14.508555535000085, 44.645331122000073 ], [ 14.534353061000047, 44.634263414000088 ], [ 14.51335696700005, 44.618841864000046 ], [ 14.472992384000065, 44.620266018000052 ], [ 14.427907748000052, 44.65656159100007 ], [ 14.394541863000086, 44.707586981000077 ], [ 14.397227410000085, 44.751613674000055 ], [ 14.368174675000091, 44.761053778000075 ], [ 14.361582879000082, 44.815985419000071 ], [ 14.32984459700009, 44.833929755000042 ], [ 14.31413821700005, 44.893784898000035 ], [ 14.294200066000087, 44.908636786000045 ], [ 14.301524285000085, 44.943426825000074 ], [ 14.359629754000082, 44.908636786000045 ], [ 14.387380405000044, 44.909002997000073 ], [ 14.39031009200005, 44.96039459800005 ], [ 14.411387566000087, 44.956366278000075 ], [ 14.37671959700009, 44.986883856000077 ], [ 14.340830925000091, 45.055609442000048 ], [ 14.278493686000047, 45.113348700000074 ], [ 14.313649936000047, 45.172430731000077 ], [ 14.356211785000085, 45.169256903000075 ], [ 14.36304772200009, 45.093573309000078 ], [ 14.387705925000091, 45.039048570000034 ], [ 14.41765384200005, 44.997992255000042 ], [ 14.473480665000068, 44.971421617000033 ], [ 14.451914910000085, 44.922308661000045 ], [ 14.46656334700009, 44.804836330000057 ], [ 14.451914910000085, 44.798773505000042 ], [ 14.472911004000082, 44.765204169000071 ], [ 14.472178582000083, 44.707953192000048 ], [ 14.513926629000082, 44.662176825000074 ] ] ], [ [ [ 14.723399285000085, 44.943345445000034 ], [ 14.628916863000086, 44.978176174000055 ], [ 14.62086022200009, 45.045599677000041 ], [ 14.60328209700009, 45.038967190000051 ], [ 14.61695397200009, 45.024644273000035 ], [ 14.510508660000085, 45.032171942000048 ], [ 14.460134311000047, 45.052394924000055 ], [ 14.425059441000087, 45.08734772300005 ], [ 14.46265709700009, 45.10101959800005 ], [ 14.47632897200009, 45.12836334800005 ], [ 14.530121290000068, 45.134833075000074 ], [ 14.52125084700009, 45.148830471000053 ], [ 14.549815300000091, 45.221421617000033 ], [ 14.534353061000047, 45.237534898000035 ], [ 14.548838738000086, 45.248724677000041 ], [ 14.595876498000052, 45.237534898000035 ], [ 14.583994988000086, 45.230169989000046 ], [ 14.623789910000085, 45.175482489000046 ], [ 14.59742272200009, 45.166449286000045 ], [ 14.665293816000087, 45.161810614000046 ], [ 14.665293816000087, 45.08734772300005 ], [ 14.740489129000082, 45.073065497000073 ], [ 14.74000084700009, 45.044338283000059 ], [ 14.799815300000091, 45.005194403000075 ], [ 14.814952019000089, 44.977484442000048 ], [ 14.760915561000047, 44.977484442000048 ], [ 14.747243686000047, 44.970038153000075 ], [ 14.756846550000091, 44.948716539000088 ], [ 14.723399285000085, 44.943345445000034 ] ] ], [ [ [ 16.264414910000085, 43.512884833000044 ], [ 16.375254754000082, 43.490179755000042 ], [ 16.211436394000089, 43.490057684000078 ], [ 16.264414910000085, 43.512884833000044 ] ] ], [ [ [ 14.759776238000086, 44.292059637000079 ], [ 14.791677280000044, 44.272528387000079 ], [ 14.789724155000044, 44.266913153000075 ], [ 14.748545769000089, 44.261664130000042 ], [ 14.73959394600007, 44.280178127000056 ], [ 14.759776238000086, 44.292059637000079 ] ] ], [ [ [ 14.59506269600007, 44.34711334800005 ], [ 14.643565300000091, 44.325751044000071 ], [ 14.661387566000087, 44.308661200000074 ], [ 14.59506269600007, 44.34711334800005 ] ] ], [ [ [ 14.803233269000089, 44.405503648000035 ], [ 14.811208530000044, 44.350043036000045 ], [ 14.801036004000082, 44.343085028000075 ], [ 14.756195509000065, 44.363999742000033 ], [ 14.76343834700009, 44.415350653000075 ], [ 14.803233269000089, 44.405503648000035 ] ] ], [ [ [ 14.244151238000086, 44.661444403000075 ], [ 14.280446811000047, 44.677557684000078 ], [ 14.257334832000083, 44.656724351000037 ], [ 14.27116946700005, 44.612534898000035 ], [ 14.232595248000052, 44.626044012000079 ], [ 14.244151238000086, 44.661444403000075 ] ] ] ] } }
]
}
